Store Name,Store Number,Phone Number,Address,Url,Longitude,Latitude,City,State
Trader Joe's Birmingham,737,205-969-7801,"  205 Summit Blvd, Suite 100 Birmingham, AL 35243 ",https://locations.traderjoes.com/al/birmingham/737/,-86.7292915,33.4465106,birmingham,al
Trader Joe's Huntsville,785,256-890-7156,"  1100 Mid City Dr NW Huntsville, AL 35806 ",https://locations.traderjoes.com/al/huntsville/785/,-86.665572808088,34.7401398055043,huntsville,al
Trader Joe's Little Rock,756,501-954-7659,"  11500 Financial Centre Pky Little Rock, AR 72211 ",https://locations.traderjoes.com/ar/little-rock/756/,-92.4018539,34.7482874,little-rock,ar
Trader Joe's Chandler,287,,"  3961 S Arizona Ave Chandler, AZ 85248 ",https://locations.traderjoes.com/az/chandler/287/,-111.8411924,33.2587485,chandler,az
Trader Joe's Gilbert,285,480-857-9878,"  1779 E. Williams Field Rd. Gilbert, AZ 85295 ",https://locations.traderjoes.com/az/gilbert/285/,-111.7516358,33.3060482,gilbert,az
Trader Joe's Glendale,85,623-776-7414,"  7720 West Bell Rd Glendale, AZ 85308 ",https://locations.traderjoes.com/az/glendale/85/,-112.2265726,33.6393288,glendale,az
Trader Joe's Mesa,89,480-632-0951,"  2050 E Baseline Rd Mesa, AZ 85204 ",https://locations.traderjoes.com/az/mesa/89/,-111.7870802,33.3809684,mesa,az
Trader Joe's Oro Valley,96,520-797-4207,"  7912 N Oracle Oro Valley, AZ 85704 ",https://locations.traderjoes.com/az/oro-valley/96/,-110.9731792,32.3505126,oro-valley,az
Trader Joe's Ahwatukee,177,480-759-2295,"  4025 E Chandler Blvd Phoenix, AZ 85048 ",https://locations.traderjoes.com/az/phoenix/177/,-111.9948671,33.3031252,phoenix,az
Trader Joe's Paradise Valley,282,602-485-7788,"  4726 East Shea Blvd Phoenix, AZ 85028 ",https://locations.traderjoes.com/az/phoenix/282/,-111.9790307,33.5833102,phoenix,az
Trader Joe's Phoenix - Town & Country,90,602-912-9022,"  4821 N 20th St Phoenix, AZ 85016 ",https://locations.traderjoes.com/az/phoenix/90/,-112.0378101,33.5071197,phoenix,az
Trader Joe's Prescott,283,928-443-9075,"  252 N Lee Blvd Prescott, AZ 86303 ",https://locations.traderjoes.com/az/prescott/283/,-112.405347,34.548656,prescott,az
Trader Joe's Queen Creek,286,480-877-7213,"  21186 S. Ellsworth Loop Rd Queen Creek, AZ 85142 ",https://locations.traderjoes.com/az/queen-creek/286/,-111.640263,33.256054,queen-creek,az
Trader Joe's N Scottsdale,87,480-367-8920,"  7555 E Frank Lloyd Wright Scottsdale, AZ 85260 ",https://locations.traderjoes.com/az/scottsdale/87/,-111.91713,33.6358602,scottsdale,az
Trader Joe's Scottsdale,94,480-948-9886,"  6202 N Scottsdale Rd Scottsdale, AZ 85253 ",https://locations.traderjoes.com/az/scottsdale/94/,-111.9275797,33.5294368,scottsdale,az
Trader Joe's Surprise,92,623-546-1640,"  14095 W Grand Ave Surprise, AZ 85374 ",https://locations.traderjoes.com/az/surprise/92/,-112.3673991,33.6513787,surprise,az
Trader Joe's ASU,91,480-303-9974,"  940 E. University Drive Tempe, AZ 85281 ",https://locations.traderjoes.com/az/tempe/91/,-111.9250249,33.4223923,tempe,az
Trader Joe's Tempe,93,480-838-4142,"  6460 S McClintock Dr Tempe, AZ 85283 ",https://locations.traderjoes.com/az/tempe/93/,-111.9122475,33.3618135,tempe,az
Trader Joe's Tucson,95,520-733-1313,"  1101 N Wilmot Rd Tucson, AZ 85712 ",https://locations.traderjoes.com/az/tucson/95/,-110.8589241,32.2371687,tucson,az
Trader Joe's Tucson - Campbell & Limberlost,191,520-325-0069,"  4209 N Campbell Ave Tucson, AZ 85719 ",https://locations.traderjoes.com/az/tucson/191/,-110.9447958,32.2835033,tucson,az
Trader Joe's Tucson - Crossroads,88,520-323-4500,"  4766 E Grant Rd Tucson, AZ 85712 ",https://locations.traderjoes.com/az/tucson/88/,-110.8909436,32.2497812,tucson,az
Trader Joe's Agoura Hills,247,818-865-8217,"  28941 Canwood St Agoura Hills, CA 91301 ",https://locations.traderjoes.com/ca/agoura-hills/247/,-118.7566493,34.1464425,agoura-hills,ca
Trader Joe's Alameda,109,510-769-5450,"  2217 South Shore Center Alameda, CA 94501 ",https://locations.traderjoes.com/ca/alameda/109/,-122.2514556,37.7577242,alameda,ca
Trader Joe's Aliso Viejo,195,949-643-5531,"  26541 Aliso Creek Rd Aliso Viejo, CA 92656 ",https://locations.traderjoes.com/ca/aliso-viejo/195/,-117.7247835,33.5774874,aliso-viejo,ca
Trader Joe's Arroyo Grande,117,805-474-6114,"  955 Rancho Pkwy Arroyo Grande, CA 93420 ",https://locations.traderjoes.com/ca/arroyo-grande/117/,-120.5940538,35.125703,arroyo-grande,ca
Trader Joe's Bakersfield,14,661-837-8863,"  8200 Stockdale Hwy Bakersfield, CA 93311 ",https://locations.traderjoes.com/ca/bakersfield/14/,-119.0934994,35.3556172,bakersfield,ca
Trader Joe's Berkeley,186,510-204-9074,"  1885 University Ave Berkeley, CA 94703 ",https://locations.traderjoes.com/ca/berkeley/186/,-122.273313,37.871926,berkeley,ca
Trader Joe's Brea,11,714-257-1180,"  2500 E Imperial Hwy Brea, CA 92821 ",https://locations.traderjoes.com/ca/brea/11/,-117.8700159,33.9105696,brea,ca
Trader Joe's Brentwood,201,925-516-3044,"  5451 Lone Tree Way Brentwood, CA 94513 ",https://locations.traderjoes.com/ca/brentwood/201/,-121.7501075,37.9611463,brentwood,ca
Trader Joe's Burbank,124,818-848-4299,"  214 E Alameda Ave Burbank, CA 91502 ",https://locations.traderjoes.com/ca/burbank/124/,-118.2988641,34.1749591,burbank,ca
Trader Joe's Calabasas,254,818-591-6758,"  23741 Calabasas Rd. Calabasas, CA 91302 ",https://locations.traderjoes.com/ca/calabasas/254/,-118.6449836,34.1556665,calabasas,ca
Trader Joe's Camarillo,114,805-388-1925,"  363 Carmen Dr Camarillo, CA 93010 ",https://locations.traderjoes.com/ca/camarillo/114/,-119.0532205,34.2198547,camarillo,ca
Trader Joe's Campbell,73,408-369-7823,"  1875 Bascom Ave Campbell, CA 95008 ",https://locations.traderjoes.com/ca/campbell/73/,-121.9332823,37.2879599,campbell,ca
Trader Joe's Capitola,64,831-464-0115,"  3555 Clares St #D Capitola, CA 95010 ",https://locations.traderjoes.com/ca/capitola/64/,-121.9701506,36.9785429,capitola,ca
Trader Joe's Carlsbad,220,760-603-8473,"  2629 Gateway Rd Carlsbad, CA 92009 ",https://locations.traderjoes.com/ca/carlsbad/220/,-117.2530686,33.1265912,carlsbad,ca
Trader Joe's Castro Valley,84,510-538-2738,"  22224 Redwood Road Castro Valley, CA 94546 ",https://locations.traderjoes.com/ca/castro-valley/84/,-122.073003,37.6853639,castro-valley,ca
Trader Joe's Cathedral City,118,760-202-0090,"  67720 E Palm Canyon Dr Cathedral City, CA 92234 ",https://locations.traderjoes.com/ca/cathedral-city/118/,-116.4830524,33.7892005,cathedral-city,ca
Trader Joe's Cerritos,104,562-402-5148,"  12861 Towne Center Dr Cerritos, CA 90703 ",https://locations.traderjoes.com/ca/cerritos/104/,-118.0581293,33.8692417,cerritos,ca
Trader Joe's Chatsworth,184,818-341-3010,"  10330 Mason Ave Chatsworth, CA 91311 ",https://locations.traderjoes.com/ca/chatsworth/184/,-118.5787951,34.2582554,chatsworth,ca
Trader Joe's Chico,199,530-343-9920,"  801 East Ave Chico, CA 95926 ",https://locations.traderjoes.com/ca/chico/199/,-121.8465145,39.759334,chico,ca
Trader Joe's Chino Hills,216,909-627-1404,"  13911 Peyton Drive Chino Hills, CA 91709 ",https://locations.traderjoes.com/ca/chino-hills/216/,-117.7321143,34.0005411,chino-hills,ca
Trader Joe's Chula Vista,120,619-656-5370,"  878 Eastlake Pkwy Chula Vista, CA 91914 ",https://locations.traderjoes.com/ca/chula-vista/120/,-116.9703882,32.6513234,chula-vista,ca
Trader Joe's Claremont,214,909-625-8784,"  475 W Foothill Blvd Claremont, CA 91711 ",https://locations.traderjoes.com/ca/claremont/214/,-117.7220344,34.1073921,claremont,ca
Trader Joe's Clovis,180,559-325-3120,"  1077 N Willow Ave Clovis, CA 93611 ",https://locations.traderjoes.com/ca/clovis/180/,-119.728035,36.8493342,clovis,ca
Trader Joe's Concord,60,925-689-2990,"  1150 Concord Ave Concord, CA 94520 ",https://locations.traderjoes.com/ca/concord/60/,-122.0564004,37.9792245,concord,ca
Trader Joe's Concord,83,925-521-1134,"  785 Oak Grove Rd Concord, CA 94518 ",https://locations.traderjoes.com/ca/concord/83/,-122.024742,37.9368265,concord,ca
Trader Joe's Corona,213,951-603-0299,"  2790 Cabot Dr Corona, CA 92883 ",https://locations.traderjoes.com/ca/corona/213/,-117.5065624,33.8114911,corona,ca
Trader Joe's Costa Mesa,35,949-642-5134,"  640 W 17th St Costa Mesa, CA 92627 ",https://locations.traderjoes.com/ca/costa-mesa/35/,-117.9245798,33.6367934,costa-mesa,ca
Trader Joe's Culver City,251,310-313-0441,"  6150 Slauson Ave Culver City, CA 90230 ",https://locations.traderjoes.com/ca/culver-city/251/,-118.3928504,33.98801,culver-city,ca
Trader Joe's Culver City,36,310-202-1108,"  9290 Culver Blvd Culver City, CA 90232 ",https://locations.traderjoes.com/ca/culver-city/36/,-118.3929931,34.0252255,culver-city,ca
Trader Joe's Cypress,242,714-220-4930,"  5245 Katella Ave. Cypress, CA 90720 ",https://locations.traderjoes.com/ca/cypress/242/,-118.041489,33.8032103,cypress,ca
Trader Joe's Daly City,74,650-755-3825,"  417 Westlake Center Daly City, CA 94015 ",https://locations.traderjoes.com/ca/daly-city/74/,-122.482237,37.7000041,daly-city,ca
Trader Joe's Danville,65,925-838-5757,"  85 Railroad Ave Danville, CA 94526 ",https://locations.traderjoes.com/ca/danville/65/,-122.0032311,37.8231031,danville,ca
Trader Joe's Davis,182,530-757-2693,"  885 Russell Blvd Davis, CA 95616 ",https://locations.traderjoes.com/ca/davis/182/,-121.7614861,38.5467319,davis,ca
Trader Joe's Eagle Rock,55,323-257-6422,"  1566 Colorado Blvd Eagle Rock, CA 90041 ",https://locations.traderjoes.com/ca/eagle-rock/55/,-118.200439,34.1392586,eagle-rock,ca
Trader Joe's El Cerrito,108,510-524-7609,"  225 El Cerrito Plaza El Cerrito, CA 94530 ",https://locations.traderjoes.com/ca/el-cerrito/108/,-122.299816,37.8989101,el-cerrito,ca
Trader Joe's Elk Grove,190,916-686-9980,"  9670 Bruceville Road Elk Grove, CA 95757 ",https://locations.traderjoes.com/ca/elk-grove/190/,-121.4205286,38.4066009,elk-grove,ca
Trader Joe's Emeryville,72,510-658-8091,"  5700 Christie Ave Emeryville, CA 94608 ",https://locations.traderjoes.com/ca/emeryville/72/,-122.2942301,37.8369813,emeryville,ca
Trader Joe's Encinitas,25,760-634-2114,"  115 N El Camino Real Encinitas, CA 92024 ",https://locations.traderjoes.com/ca/encinitas/25/,-117.2558081,33.0471008,encinitas,ca
Trader Joe's Encino,56,818-990-7751,"  17640 Burbank Blvd Encino, CA 91316 ",https://locations.traderjoes.com/ca/encino/56/,-118.5177696,34.1717937,encino,ca
Trader Joe's Escondido,105,760-233-4020,"  1885 S Centre City Pkwy Escondido, CA 92025 ",https://locations.traderjoes.com/ca/escondido/105/,-117.074828,33.1000238,escondido,ca
Trader Joe's Fairfield,101,707-434-0144,"  1350 Gateway Blvd Fairfield, CA 94533 ",https://locations.traderjoes.com/ca/fairfield/101/,-122.0522272,38.2641547,fairfield,ca
Trader Joe's Fair Oaks,71,916-863-1744,"  5309 Sunrise Blvd Fair Oaks, CA 95628 ",https://locations.traderjoes.com/ca/fair-oaks/71/,-121.2738677,38.6620665,fair-oaks,ca
Trader Joe's Folsom,172,916-817-8820,"  850 East Bidwell Folsom, CA 95630 ",https://locations.traderjoes.com/ca/folsom/172/,-121.1559149,38.6724426,folsom,ca
Trader Joe's Fremont,77,510-794-1386,"  39324 Argonaut Way Fremont, CA 94538 ",https://locations.traderjoes.com/ca/fremont/77/,-121.9861519,37.5434679,fremont,ca
Trader Joe's Fresno,8,559-433-6478,"  8478 N. Friant Road Fresno, CA 93720 ",https://locations.traderjoes.com/ca/fresno/8/,-119.7826491,36.8588031,fresno,ca
Trader Joe's Glendale,53,818-507-8192,"  103 E Glenoaks Blvd Glendale, CA 91207 ",https://locations.traderjoes.com/ca/glendale/53/,-118.2545353,34.1598391,glendale,ca
Trader Joe's Goleta,110,805-692-2234,"  5767 Calle Real Goleta, CA 93117 ",https://locations.traderjoes.com/ca/goleta/110/,-119.825238,34.4406928,goleta,ca
Trader Joe's Granada Hills,44,818-368-6461,"  11114 Balboa Blvd Granada Hills, CA 91344 ",https://locations.traderjoes.com/ca/granada-hills/44/,-118.5016054,34.272659,granada-hills,ca
Trader Joe's Larkspur,235,415-945-7955,"  2052 Redwood Hwy Greenbrae, CA 94904 ",https://locations.traderjoes.com/ca/greenbrae/235/,-122.5149604,37.9378615,greenbrae,ca
Trader Joe's Hermosa Beach,248,310-318-1767,"  1100 Pacific Coast Hwy Hermosa Beach, CA 90254 ",https://locations.traderjoes.com/ca/hermosa-beach/248/,-118.3915724,33.8638765,hermosa-beach,ca
Trader Joe's Huntington Beach,47,714-848-9640,"  18681 Main St Huntington Beach, CA 92648 ",https://locations.traderjoes.com/ca/huntington-beach/47/,-117.9927157,33.6925294,huntington-beach,ca
Trader Joe's Huntington Beach - Brookhurst,241,714-968-4070,"  21431 Brookhurst St Huntington Beach, CA 92646 ",https://locations.traderjoes.com/ca/huntington-beach/241/,-117.9541285,33.6518448,huntington-beach,ca
Trader Joe's Huntington Harbour,244,714-846-7307,"  16821 Algonquin St Huntington Beach, CA 92649 ",https://locations.traderjoes.com/ca/huntington-beach/244/,-118.05145,33.7175194,huntington-beach,ca
Trader Joe's Irvine - University Ctr,111,949-509-6138,"  4225 Campus Dr Irvine, CA 92612 ",https://locations.traderjoes.com/ca/irvine/111/,-117.8375077,33.6504666,irvine,ca
Trader Joe's Irvine -  Walnut Village Ctr,37,949-857-8108,"  14443 Culver Dr Irvine, CA 92604 ",https://locations.traderjoes.com/ca/irvine/37/,-117.7884205,33.7061608,irvine,ca
Trader Joe's Irvine - Woodbury Town Center,210,949-551-6402,"  6222 Irvine Blvd Irvine, CA 92620 ",https://locations.traderjoes.com/ca/irvine/210/,-117.7418594,33.6998684,irvine,ca
Trader Joe's La Canada,42,818-790-6373,"  475 Foothill Blvd La Canada, CA 91011 ",https://locations.traderjoes.com/ca/la-canada/42/,-118.1884204,34.200037,la-canada,ca
Trader Joe's Lafayette,115,925-299-9344,"  3649 Mt Diablo Blvd Lafayette, CA 94549 ",https://locations.traderjoes.com/ca/lafayette/115/,-122.126966,37.8902393,lafayette,ca
Trader Joe's Laguna Hills,39,949-461-0927,"  24231 Avenida De La Carlota Laguna Hills, CA 92653 ",https://locations.traderjoes.com/ca/laguna-hills/39/,-117.702995,33.6098584,laguna-hills,ca
Trader Joe's Laguna Niguel - Ocean Ranch,103,949-493-8599,"  32351 Street of the Golden Lantern Laguna Niguel, CA 92677 ",https://locations.traderjoes.com/ca/laguna-niguel/103/,-117.6966468,33.4929684,laguna-niguel,ca
Trader Joe's La Habra | Grocery Store in La Habra 90631,5,562-266-1428,"  2101 W. Imperial Hwy, Suite A La Habra, CA 90631 ",https://locations.traderjoes.com/ca/la-habra/5/,-117.9690152,33.9186903,la-habra,ca
Trader Joe's La Jolla,20,858-546-8629,"  8657 Villa la Jolla Dr La Jolla, CA 92037 ",https://locations.traderjoes.com/ca/la-jolla/20/,-117.2317263,32.8657504,la-jolla,ca
Trader Joe's La Mesa,24,619-466-0105,"  5495 Grossmont Center Dr La Mesa, CA 91942 ",https://locations.traderjoes.com/ca/la-mesa/24/,-117.0056147,32.7792966,la-mesa,ca
Trader Joe's La Quinta,189,760-777-1553,"  46400 Washington St La Quinta, CA 92253 ",https://locations.traderjoes.com/ca/la-quinta/189/,-116.2942688,33.7119922,la-quinta,ca
Trader Joe's Livermore,208,925-243-1947,"  1122 A East Stanley Blvd Livermore, CA 94550 ",https://locations.traderjoes.com/ca/livermore/208/,-121.7816937,37.6803533,livermore,ca
Trader Joe's Long Beach - Bellflower Blvd,194,562-596-2514,"  2222 North Bellflower Blvd Long Beach, CA 90815 ",https://locations.traderjoes.com/ca/long-beach/194/,-118.1228974,33.7967761,long-beach,ca
Trader Joe's Long Beach - Bixby Knolls,116,562-422-1020,"  4210 Long Beach Blvd Long Beach, CA 90807 ",https://locations.traderjoes.com/ca/long-beach/116/,-118.1884404,33.8355392,long-beach,ca
Trader Joe's Long Beach - PCH,43,562-596-4388,"  6451 E Pacific Coast  Hwy Long Beach, CA 90803 ",https://locations.traderjoes.com/ca/long-beach/43/,-118.1089303,33.7576624,long-beach,ca
Trader Joe's Los Altos,127,408-245-1917,"  2310 Homestead Rd Los Altos, CA 94024 ",https://locations.traderjoes.com/ca/los-altos/127/,-122.0670548,37.3367053,los-altos,ca
Trader Joe's Hollywood,206,323-856-0689,"  1600 N Vine St Los Angeles, CA 90028 ",https://locations.traderjoes.com/ca/los-angeles/206/,-118.3260586,34.1003784,los-angeles,ca
Trader Joe's Los Angeles,31,323-965-1989,"  263 S La Brea Ave Los Angeles, CA 90036 ",https://locations.traderjoes.com/ca/los-angeles/31/,-118.3444162,34.0691505,los-angeles,ca
Trader Joe's Los Angeles - 3rd & Fairfax,240,323-931-4012,"  175 South Fairfax Ave Los Angeles, CA 90036 ",https://locations.traderjoes.com/ca/los-angeles/240/,-118.3617784,34.0722126,los-angeles,ca
Trader Joe's Los Angeles - Burton Way,237,310-248-2984,"  8500 Burton Way Los Angeles, CA 90048 ",https://locations.traderjoes.com/ca/los-angeles/237/,-118.3770707,34.0711651,los-angeles,ca
Trader Joe's Olympic Blvd,215,310-477-5949,"  11755 Olympic Blvd Los Angeles, CA 90064 ",https://locations.traderjoes.com/ca/los-angeles/215/,-118.4493107,34.0337159,los-angeles,ca
Trader Joe's Silver Lake,17,323-665-6774,"  2738 Hyperion Ave Los Angeles, CA 90027 ",https://locations.traderjoes.com/ca/los-angeles/17/,-118.2715739,34.1076393,los-angeles,ca
Trader Joe's Sunset Blvd,192,323-822-7663,"  8000 W Sunset Blvd Los Angeles, CA 90046 ",https://locations.traderjoes.com/ca/los-angeles/192/,-118.365233,34.0976043,los-angeles,ca
Trader Joe's USC Village,250,213-749-1497,"  3131 S Hoover Street Los Angeles, CA 90089 ",https://locations.traderjoes.com/ca/los-angeles/250/,-118.2846645,34.026076,los-angeles,ca
Trader Joe's West Los Angeles,7,310-470-1917,"  10850 National Blvd Los Angeles, CA 90064 ",https://locations.traderjoes.com/ca/los-angeles/7/,-118.4214825,34.030059,los-angeles,ca
Trader Joe's West Los Angeles - Sepulveda,119,310-836-2458,"  3456 S Sepulveda Blvd Los Angeles, CA 90034 ",https://locations.traderjoes.com/ca/los-angeles/119/,-118.4221063,34.0204805,los-angeles,ca
Trader Joe's Westwood,234,310-824-1495,"  1000 Glendon Ave Los Angeles, CA 90024 ",https://locations.traderjoes.com/ca/los-angeles/234/,-118.4437742,34.0622696,los-angeles,ca
Trader Joe's Los Gatos,181,408-356-2324,"  15466 Los Gatos Blvd Los Gatos, CA 95032 ",https://locations.traderjoes.com/ca/los-gatos/181/,-121.9579316,37.2441186,los-gatos,ca
Trader Joe's Manhattan Beach Blvd,34,310-372-1274,"  1821 Manhattan Beach Blvd Manhattan Beach, CA 90266 ",https://locations.traderjoes.com/ca/manhattan-beach/34/,-118.379888,33.8876384,manhattan-beach,ca
Trader Joe's Manhattan Beach - Rosecrans Blvd,106,310-725-9800,"  1800 Rosecrans Blvd Manhattan Beach, CA 90266 ",https://locations.traderjoes.com/ca/manhattan-beach/106/,-118.3804345,33.9004749,manhattan-beach,ca
Trader Joe's Marina Del Rey,205,310-301-4461,"  4675 Admiralty Way Marina Del Rey, CA 90292 ",https://locations.traderjoes.com/ca/marina-del-rey/205/,-118.441227,33.9795591,marina-del-rey,ca
Trader Joe's Menlo Park,69,650-323-2134,"  720 Menlo Ave Menlo Park, CA 94025 ",https://locations.traderjoes.com/ca/menlo-park/69/,-122.1835183,37.4512158,menlo-park,ca
Trader Joe's Millbrae,170,650-259-9142,"  765 Broadway Millbrae, CA 94030 ",https://locations.traderjoes.com/ca/millbrae/170/,-122.3960311,37.6036526,millbrae,ca
Trader Joe's Milpitas,229,408-942-6957,"  1306 Great Mall Pkwy Milpitas, CA 95035 ",https://locations.traderjoes.com/ca/milpitas/229/,-121.899693,37.412414,milpitas,ca
Trader Joe's Ladera Ranch,257,,"  27542 Antonio Pkwy Mission Viejo, CA 92694 ",https://locations.traderjoes.com/ca/mission-viejo/257/,-117.6275522,33.5628794,mission-viejo,ca
Trader Joe's Mission Viejo,126,949-581-5638,"  25410 Marguerite Pkwy Mission Viejo, CA 92692 ",https://locations.traderjoes.com/ca/mission-viejo/126/,-117.658427,33.5930519,mission-viejo,ca
Trader Joe's Modesto,9,209-491-0445,"  3250 Dale Road Modesto, CA 95356 ",https://locations.traderjoes.com/ca/modesto/9/,-121.0494087,37.6871676,modesto,ca
Trader Joe's Monrovia,112,626-358-8884,"  604 W Huntington Dr Monrovia, CA 91016 ",https://locations.traderjoes.com/ca/monrovia/112/,-118.0122255,34.1398459,monrovia,ca
Trader Joe's Monterey,204,831-372-2010,"  570 Munras Ave Monterey, CA 93940 ",https://locations.traderjoes.com/ca/monterey/204/,-121.8943519,36.5965585,monterey,ca
Trader Joe's Montrose,52,818-957-3613,"  2462 Honolulu Ave Montrose, CA 91020 ",https://locations.traderjoes.com/ca/montrose/52/,-118.2331547,34.2069873,montrose,ca
Trader Joe's Morgan Hill,202,408-778-6409,"  17035 Laurel Rd Morgan Hill, CA 95037 ",https://locations.traderjoes.com/ca/morgan-hill/202/,-121.6382032,37.1311381,morgan-hill,ca
Trader Joe's Mountain View,81,650-917-1013,"  590 Showers Dr Mountain View, CA 94040 ",https://locations.traderjoes.com/ca/mountain-view/81/,-122.1107579,37.4020838,mountain-view,ca
Trader Joe's Murrieta,258,,"  40388 Murrieta Hot Springs Rd Murrieta, CA 92563 ",https://locations.traderjoes.com/ca/murrieta/258/,-117.1760128,33.5539326,murrieta,ca
Trader Joe's Napa,128,707-256-0806,"  3654 Bel Aire Plaza Napa, CA 94558 ",https://locations.traderjoes.com/ca/napa/128/,-122.3058353,38.3227963,napa,ca
Trader Joe's Newport Beach,125,949-494-7404,"  8086 E Pacific Coast Hwy Newport Beach, CA 92657 ",https://locations.traderjoes.com/ca/newport-beach/125/,-117.8324176,33.5681793,newport-beach,ca
Trader Joe's North Hollywood,252,818-762-2963,"  6130 Laurel Canyon Bl North Hollywood, CA 91606 ",https://locations.traderjoes.com/ca/north-hollywood/252/,-118.3957817,34.1821716,north-hollywood,ca
Trader Joe's Northridge,12,,"  9224 Reseda Blvd Northridge, CA 91325 ",https://locations.traderjoes.com/ca/northridge/12/,-118.5357034,34.2380292,northridge,ca
Trader Joe's Novato,198,415-898-9359,"  7514 Redwood Blvd Novato, CA 94945 ",https://locations.traderjoes.com/ca/novato/198/,-122.5681231,38.1118504,novato,ca
Trader Joe's Oakland - Lakeshore,203,510-238-9076,"  3250 Lakeshore Ave Oakland, CA 94610 ",https://locations.traderjoes.com/ca/oakland/203/,-122.2442512,37.8097414,oakland,ca
Trader Joe's Oakland - Rockridge,231,510-923-9428,"  5727 College Ave Oakland, CA 94618 ",https://locations.traderjoes.com/ca/oakland/231/,-122.2528065,37.8455601,oakland,ca
Trader Joe's Oceanside,22,760-433-9994,"  2570 Vista Way Oceanside, CA 92054 ",https://locations.traderjoes.com/ca/oceanside/22/,-117.3319447,33.1841133,oceanside,ca
Trader Joe's Mall of Orange,46,714-283-5697,"  2114 N Tustin St Orange, CA 92865 ",https://locations.traderjoes.com/ca/orange/46/,-117.8365462,33.8234418,orange,ca
Trader Joe's Pacific Grove,79,831-656-0180,"  1170 Forest Ave Pacific Grove, CA 93950 ",https://locations.traderjoes.com/ca/pacific-grove/79/,-121.9219308,36.6055799,pacific-grove,ca
Trader Joe's Palmdale,185,661-947-2890,"  39507 10th St W Palmdale, CA 93551 ",https://locations.traderjoes.com/ca/palmdale/185/,-118.149297,34.6003122,palmdale,ca
Trader Joe's Palm Desert,3,760-340-2291,"  44250 Town Center Way Palm Desert, CA 92260 ",https://locations.traderjoes.com/ca/palm-desert/3/,-116.3966112,33.7274599,palm-desert,ca
Trader Joe's Palo Alto,207,650-327-7018,"  855 El Camino Real Palo Alto, CA 94301 ",https://locations.traderjoes.com/ca/palo-alto/207/,-122.1577459,37.4384255,palo-alto,ca
Trader Joe's Hastings Ranch,171,626-351-3399,"  467 N Rosemead Blvd Pasadena, CA 91107 ",https://locations.traderjoes.com/ca/pasadena/171/,-118.078195,34.1537035,pasadena,ca
Trader Joe's Pasadena,51,626-568-9254,"  610 S Arroyo Pkwy Pasadena, CA 91105 ",https://locations.traderjoes.com/ca/pasadena/51/,-118.1468743,34.1351409,pasadena,ca
Trader Joe's Pasadena,32,626-356-2963,"  3035 E Huntington Dr Pasadena, CA 91107 ",https://locations.traderjoes.com/ca/pasadena/32/,-118.0894848,34.1278856,pasadena,ca
Trader Joe's Pasadena - S Lake Ave,179,626-395-9553,"  345 S Lake Ave Pasadena, CA 91101 ",https://locations.traderjoes.com/ca/pasadena/179/,-118.1329065,34.1400495,pasadena,ca
Trader Joe's Petaluma,107,707-769-2782,"  169 N McDowell Blvd Petaluma, CA 94954 ",https://locations.traderjoes.com/ca/petaluma/107/,-122.6280104,38.2480431,petaluma,ca
Trader Joe's Pinole,230,510-222-3501,"  2742 Pinole Valley Rd Pinole, CA 94564 ",https://locations.traderjoes.com/ca/pinole/230/,-122.2867436,37.9952651,pinole,ca
Trader Joe's Pleasanton,66,925-468-0763,"  3903 Santa Rita Road Pleasanton, CA 94588 ",https://locations.traderjoes.com/ca/pleasanton/66/,-121.8768923,37.6967871,pleasanton,ca
Trader Joe's Poway,265,,"  13644 Poway Rd Poway, CA 92064 ",https://locations.traderjoes.com/ca/poway/265/,-117.0354571,32.9579517,poway,ca
Trader Joe's Rancho Cucamonga,217,909-476-1410,"  6401 Haven Ave Rancho Cucamonga, CA 91737 ",https://locations.traderjoes.com/ca/rancho-cucamonga/217/,-117.5741371,34.1377362,rancho-cucamonga,ca
Trader Joe's Rancho Palos Verdes,233,310-544-1727,"  31176 Hawthorne Blvd Rancho Palos Verdes, CA 90275 ",https://locations.traderjoes.com/ca/rancho-palos-verdes/233/,-118.4066803,33.7493301,rancho-palos-verdes,ca
Trader Joe's Rancho Palos Verdes - S. Western Ave.,57,310-832-1241,"  28901 S Western Ave Rancho Palos Verdes, CA 90275 ",https://locations.traderjoes.com/ca/rancho-palos-verdes/57/,-118.3107608,33.7559548,rancho-palos-verdes,ca
Trader Joe's Rancho Santa Margarita,27,949-888-3640,"  30652 Santa Margarita Pkwy Rancho Santa Margarita, CA 92688 ",https://locations.traderjoes.com/ca/rancho-santa-margarita/27/,-117.5953482,33.6424952,rancho-santa-margarita,ca
Trader Joe's Redding,219,530-223-4875,"  845 Browning St Redding, CA 96003 ",https://locations.traderjoes.com/ca/redding/219/,-122.3571133,40.5917021,redding,ca
Trader Joe's Redlands,99,909-798-3888,"  552 Orange St Redlands, CA 92374 ",https://locations.traderjoes.com/ca/redlands/99/,-117.18117,34.060625,redlands,ca
Trader Joe's Redondo Beach,38,310-316-1745,"  1761 S Elena Ave Redondo Bch., CA 90277 ",https://locations.traderjoes.com/ca/redondo-bch./38/,-118.386143,33.8185616,redondo-bch.,ca
Trader Joe's Riverside,15,951-781-2378,"  6225 Riverside Plaza Riverside, CA 92506 ",https://locations.traderjoes.com/ca/riverside/15/,-117.3884753,33.9559323,riverside,ca
Trader Joe's Rocklin,228,916-660-9820,"  5116 Commons Dr. #103 Rocklin, CA 95677 ",https://locations.traderjoes.com/ca/rocklin/228/,-121.209243,38.8028703,rocklin,ca
Trader Joe's Roseville,80,916-784-9084,"  1117 Roseville Square Roseville, CA 95678 ",https://locations.traderjoes.com/ca/roseville/80/,-121.274886,38.7462886,roseville,ca
Trader Joe's Sacramento,175,916-456-1853,"  5000 Folsom Blvd Sacramento, CA 95819 ",https://locations.traderjoes.com/ca/sacramento/175/,-121.444806,38.560398,sacramento,ca
Trader Joe's Sacramento,70,916-481-8797,"  2625 Marconi Ave Sacramento, CA 95821 ",https://locations.traderjoes.com/ca/sacramento/70/,-121.4001675,38.6185969,sacramento,ca
Trader Joe's San Carlos,174,650-594-2138,"  1482 El Camino Real San Carlos, CA 94070 ",https://locations.traderjoes.com/ca/san-carlos/174/,-122.248571,37.4963881,san-carlos,ca
Trader Joe's San Clemente,16,949-240-9996,"  638 Camino de Los Mares San Clemente, CA 92673 ",https://locations.traderjoes.com/ca/san-clemente/16/,-117.651735,33.4574319,san-clemente,ca
Trader Joe's Del Mar,223,858-755-7130,"  13480 Highlands Place San Diego, CA 92130 ",https://locations.traderjoes.com/ca/san-diego/223/,-117.1914046,32.9611431,san-diego,ca
Trader Joe's Mission Valley,222,619-297-0749,"  1072 Camino Del Rio North San Diego, CA 92108 ",https://locations.traderjoes.com/ca/san-diego/222/,-117.1551652,32.7661619,san-diego,ca
Trader Joe's San Diego - Carmel Mtn Ranch,23,858-673-0526,"  11955 Carmel Mountain Rd San Diego, CA 92128 ",https://locations.traderjoes.com/ca/san-diego/23/,-117.0750506,32.9821123,san-diego,ca
Trader Joe's San Diego - Hillcrest,26,619-296-3122,"  1090 University Avenue San Diego, CA 92103 ",https://locations.traderjoes.com/ca/san-diego/26/,-117.1538189,32.7498752,san-diego,ca
Trader Joe's San Diego - Pacific Beach,21,858-581-9101,"  1640 Garnet Ave San Diego, CA 92109 ",https://locations.traderjoes.com/ca/san-diego/21/,-117.2406508,32.8005438,san-diego,ca
Trader Joe's San Diego - Point Loma,188,619-758-9272,"  2401 Truxtun Rd San Diego, CA 92106 ",https://locations.traderjoes.com/ca/san-diego/188/,-117.2172925,32.7359623,san-diego,ca
Trader Joe's San Diego - SDSU,224,619-229-9092,"  5140 College Ave San Diego, CA 92115 ",https://locations.traderjoes.com/ca/san-diego/224/,-117.0703521,32.7720159,san-diego,ca
Trader Joe's Scripps Ranch,221,858-549-9185,"  9850 Hibert St San Diego, CA 92131 ",https://locations.traderjoes.com/ca/san-diego/221/,-117.1151691,32.9144947,san-diego,ca
Trader Joe's San Dimas,28,909-305-4757,"  856 W Arrow Hwy San Dimas, CA 91773 ",https://locations.traderjoes.com/ca/san-dimas/28/,-117.8212057,34.1034857,san-dimas,ca
Trader Joe's San Francisco,100,415-346-9964,"  3 Masonic Ave San Francisco, CA 94118 ",https://locations.traderjoes.com/ca/san-francisco/100/,-122.4478739,37.7833698,san-francisco,ca
Trader Joe's San Francisco - 9th St,78,415-863-1292,"  555 9th St San Francisco, CA 94103 ",https://locations.traderjoes.com/ca/san-francisco/78/,-122.4073786,37.7711099,san-francisco,ca
Trader Joe's San Francisco,226,415-718-0175,"  555 Fulton St San Francisco, CA 94102 ",https://locations.traderjoes.com/ca/san-francisco/226/,-122.4261091,37.7781581,san-francisco,ca
Trader Joe's San Francisco - Nob Hill,200,415-292-7665,"  1095 Hyde St San Francisco, CA 94109 ",https://locations.traderjoes.com/ca/san-francisco/200/,-122.4179937,37.7906451,san-francisco,ca
Trader Joe's San Francisco - North Beach,19,415-351-1013,"  401 Bay St San Francisco, CA 94133 ",https://locations.traderjoes.com/ca/san-francisco/19/,-122.413738,37.8055155,san-francisco,ca
Trader Joe's San Francisco - Pacific Place,225,415-536-7801,"  10 4th Street San Francisco, CA 94103 ",https://locations.traderjoes.com/ca/san-francisco/225/,-122.4056674,37.7853327,san-francisco,ca
Trader Joe's San Francisco - Stonestown,236,415-665-1835,"  265 Winston Dr San Francisco, CA 94132 ",https://locations.traderjoes.com/ca/san-francisco/236/,-122.4763117,37.7266474,san-francisco,ca
Trader Joe's San Jose - Bollinger,232,408-873-7384,"  7250 Bollinger Rd San Jose, CA 95129 ",https://locations.traderjoes.com/ca/san-jose/232/,-122.0309145,37.3117915,san-jose,ca
Trader Joe's San Jose - Coleman Ave,212,408-298-9731,"  635 Coleman Ave San Jose, CA 95110 ",https://locations.traderjoes.com/ca/san-jose/212/,-121.9091788,37.3408663,san-jose,ca
Trader Joe's San Jose - Old Almaden,63,408-264-8120,"  5353 Almaden Expressway #J-38 San Jose, CA 95118 ",https://locations.traderjoes.com/ca/san-jose/63/,-121.8792339,37.2515568,san-jose,ca
Trader Joe's San Jose - Westgate West,62,408-446-5055,"  5269 Prospect San Jose, CA 95129 ",https://locations.traderjoes.com/ca/san-jose/62/,-121.9941504,37.2929672,san-jose,ca
Trader Joe's San Juan Capistrano,249,949-496-4150,"  32151 Camino Capistrano San Juan Capistrano, CA 92675 ",https://locations.traderjoes.com/ca/san-juan-capistrano/249/,-117.6636203,33.4960493,san-juan-capistrano,ca
Trader Joe's San Luis Obispo,41,805-783-2780,"  3977 Higuera Street San Luis Obispo, CA 93401 ",https://locations.traderjoes.com/ca/san-luis-obispo/41/,-120.6645005,35.278912,san-luis-obispo,ca
Trader Joe's San Mateo - Grant St,67,650-570-6140,"  1820-22 S Grant Street San Mateo, CA 94402 ",https://locations.traderjoes.com/ca/san-mateo/67/,-122.3025133,37.5545382,san-mateo,ca
Trader Joe's San Mateo - Hillsdale,245,650-286-1509,"  45 W Hillsdale Blvd San Mateo, CA 94403 ",https://locations.traderjoes.com/ca/san-mateo/245/,-122.298278,37.535429,san-mateo,ca
Trader Joe's San Rafael,61,415-454-9530,"  337 3rd St San Rafael, CA 94901 ",https://locations.traderjoes.com/ca/san-rafael/61/,-122.5164701,37.9695393,san-rafael,ca
Trader Joe's San Ramon,246,925-275-8140,"  300 Market Place San Ramon, CA 94583 ",https://locations.traderjoes.com/ca/san-ramon/246/,-121.9521083,37.7641646,san-ramon,ca
Trader Joe's Santa Ana,113,714-424-9304,"  3329 S Bristol St Santa Ana, CA 92704 ",https://locations.traderjoes.com/ca/santa-ana/113/,-117.8842077,33.7011809,santa-ana,ca
Trader Joe's Santa Barbara,183,805-563-7383,"  3025 De La Vina St Santa Barbara, CA 93105 ",https://locations.traderjoes.com/ca/santa-barbara/183/,-119.728949,34.4389627,santa-barbara,ca
Trader Joe's Santa Barbara,59,805-560-1182,"  222 North Milpas Street Santa Barbara, CA 93103 ",https://locations.traderjoes.com/ca/santa-barbara/59/,-119.6815129,34.4250274,santa-barbara,ca
Trader Joe's Santa Clarita,263,,"  19037 Golden Valley Rd Santa Clarita, CA 91387 ",https://locations.traderjoes.com/ca/santa-clarita/263/,-118.4622163,34.3956515,santa-clarita,ca
Trader Joe's Valencia,13,661-263-3796,"  26517 Bouquet Canyon Rd Santa Clarita, CA 91350 ",https://locations.traderjoes.com/ca/santa-clarita/13/,-118.5382801,34.4285684,santa-clarita,ca
Trader Joe's Santa Cruz,193,831-425-0140,"  700 Front St Santa Cruz, CA 95060 ",https://locations.traderjoes.com/ca/santa-cruz/193/,-122.0246976,36.974544,santa-cruz,ca
Trader Joe's Santa Maria,239,805-925-1657,"  1303 S Bradley Rd Santa Maria, CA 93454 ",https://locations.traderjoes.com/ca/santa-maria/239/,-120.4213274,34.9380236,santa-maria,ca
Trader Joe's Santa Monica,256,310-912-6877,"  500 Broadway Santa Monica, CA 90401 ",https://locations.traderjoes.com/ca/santa-monica/256/,-118.4919662,34.0157655,santa-monica,ca
Trader Joe's Santa Monica,6,310-581-0253,"  3212 Pico Blvd Santa Monica, CA 90405 ",https://locations.traderjoes.com/ca/santa-monica/6/,-118.4557652,34.0263552,santa-monica,ca
Trader Joe's Wilshire,253,310-264-2223,"  2300 Wilshire Blvd #101 Santa Monica, CA 90403 ",https://locations.traderjoes.com/ca/santa-monica/253/,-118.4801333,34.0332757,santa-monica,ca
Trader Joe's Santa Rosa Ave,178,707-535-0788,"  2100 Santa Rosa Ave Santa Rosa, CA 95407 ",https://locations.traderjoes.com/ca/santa-rosa/178/,-122.7120491,38.4175177,santa-rosa,ca
Trader Joe's Santa Rosa - Cleveland Ave,75,707-525-1406,"  3225 Cleveland Ave Santa Rosa, CA 95403 ",https://locations.traderjoes.com/ca/santa-rosa/75/,-122.7323035,38.4735472,santa-rosa,ca
Trader Joe's Santee,260,,"  9680 Mission Gorge Rd Santee, CA 92071 ",https://locations.traderjoes.com/ca/santee/260/,-116.9862083,32.8397818,santee,ca
Trader Joe's Sherman Oaks,49,818-789-2771,"  14119 Riverside Dr Sherman Oaks, CA 91423 ",https://locations.traderjoes.com/ca/sherman-oaks/49/,-118.4408137,34.1579742,sherman-oaks,ca
Trader Joe's Sherman Oaks,267,,"  14130 Riverside Dr Sherman Oaks, CA 91423 ",https://locations.traderjoes.com/ca/sherman-oaks/267/,-118.4413785,34.1564542,sherman-oaks,ca
Trader Joe's Simi Valley,30,805-520-3135,"  2975-A Cochran St Simi Valley, CA 93065 ",https://locations.traderjoes.com/ca/simi-valley/30/,-118.7384764,34.2808989,simi-valley,ca
Trader Joe's South Pasadena,4,,"  1129 Fair Oaks Ave South Pasadena, CA 91030 ",https://locations.traderjoes.com/ca/south-pasadena/4/,-118.151491,34.1129035,south-pasadena,ca
Trader Joe's South San Francisco,187,650-583-6401,"  301 MC Lellan Dr South San Francisco, CA 94080 ",https://locations.traderjoes.com/ca/south-san-francisco/187/,-122.4461046,37.664736,south-san-francisco,ca
Trader Joe's South Pasadena,18,626-441-6263,"  613 Mission St S. Pasadena, CA 91030 ",https://locations.traderjoes.com/ca/s.-pasadena/18/,-118.1629729,34.1153043,s.-pasadena,ca
Trader Joe's Stockton,76,209-951-7597,"  6535 Pacific Ave Stockton, CA 95207 ",https://locations.traderjoes.com/ca/stockton/76/,-121.3228167,38.00913,stockton,ca
Trader Joe's Studio City,122,818-509-0168,"  11976 Ventura Blvd Studio City, CA 91604 ",https://locations.traderjoes.com/ca/studio-city/122/,-118.393033,34.1429443,studio-city,ca
Trader Joe's Sunnyvale,68,408-736-7573,"  316 West El Camino Real Sunnyvale, CA 94087 ",https://locations.traderjoes.com/ca/sunnyvale/68/,-122.0358811,37.3678921,sunnyvale,ca
Trader Joe's Temecula,102,951-296-9964,"  40665 Winchester Rd Temecula, CA 92591 ",https://locations.traderjoes.com/ca/temecula/102/,-117.1561498,33.5288206,temecula,ca
Trader Joe's Templeton,211,805-434-9562,"  1111 Rossi Road Templeton, CA 93465 ",https://locations.traderjoes.com/ca/templeton/211/,-120.715191,35.5419292,templeton,ca
Trader Joe's Newbury Park,243,805-375-1984,"  125 N Reino Road Thousand Oaks, CA 91320 ",https://locations.traderjoes.com/ca/thousand-oaks/243/,-118.9538252,34.1800942,thousand-oaks,ca
Trader Joe's Thousand Oaks,196,805-492-7107,"  451 Avenida De Los Arboles Thousand Oaks, CA 91360 ",https://locations.traderjoes.com/ca/thousand-oaks/196/,-118.8690704,34.2189862,thousand-oaks,ca
Trader Joe's Toluca Lake,54,818-762-2787,"  10130 Riverside Dr Toluca Lake, CA 91602 ",https://locations.traderjoes.com/ca/toluca-lake/54/,-118.3519298,34.151912,toluca-lake,ca
Trader Joe's Torrance - Hawthorne Blvd,121,310-793-8585,"  19720 Hawthorne Blvd Torrance, CA 90503 ",https://locations.traderjoes.com/ca/torrance/121/,-118.3532856,33.8522499,torrance,ca
Trader Joe's Torrance - Rolling Hills Plaza,29,310-326-9520,"  2545 Pacific Coast Hwy Torrance, CA 90505 ",https://locations.traderjoes.com/ca/torrance/29/,-118.330186,33.790641,torrance,ca
Trader Joe's Tustin,197,714-505-3289,"  1198 Irvine Blvd. Tustin, CA 92780 ",https://locations.traderjoes.com/ca/tustin/197/,-117.8096194,33.746471,tustin,ca
Trader Joe's Ventura,45,805-650-9977,"  1795 S. Victoria Ave Ventura, CA 93003 ",https://locations.traderjoes.com/ca/ventura/45/,-119.2118273,34.2572008,ventura,ca
Trader Joe's Ventura - Midtown,218,805-658-2664,"  103 S Mills Rd Ventura, CA 93003 ",https://locations.traderjoes.com/ca/ventura/218/,-119.2491837,34.2716707,ventura,ca
Trader Joe's Walnut Creek,123,925-945-1674,"  1372 S California Blvd Walnut Creek, CA 94596 ",https://locations.traderjoes.com/ca/walnut-creek/123/,-122.0605735,37.8931373,walnut-creek,ca
Trader Joe's Westchester,33,310-338-9238,"  8645 S Sepulveda Westchester, CA 90045 ",https://locations.traderjoes.com/ca/westchester/33/,-118.3966617,33.9587392,westchester,ca
Trader Joe's West Hills,50,818-347-2591,"  6751 Fallbrook Ave West Hills, CA 91307 ",https://locations.traderjoes.com/ca/west-hills/50/,-118.6258129,34.1922146,west-hills,ca
Trader Joe's West Hollywood,173,310-657-0152,"  8611 Santa Monica Blvd West Hollywood, CA 90069 ",https://locations.traderjoes.com/ca/west-hollywood/173/,-118.3795598,34.0879918,west-hollywood,ca
Trader Joe's West Hollywood,40,323-969-8048,"  7310 Santa Monica Blvd West Hollywood, CA 90046 ",https://locations.traderjoes.com/ca/west-hollywood/40/,-118.3492106,34.0905855,west-hollywood,ca
Trader Joe's Westlake Village,58,805-494-5040,"  3835 E Thousand Oaks Blvd Westlake Village, CA 91362 ",https://locations.traderjoes.com/ca/westlake-village/58/,-118.825874,34.163905,westlake-village,ca
Trader Joe's Whittier,48,562-698-1642,"  15025 E Whittier Blvd Whittier, CA 90603 ",https://locations.traderjoes.com/ca/whittier/48/,-118.0053906,33.9493596,whittier,ca
Trader Joe's Woodland Hills,209,818-712-9475,"  21055 Ventura Blvd Woodland Hills, CA 91364 ",https://locations.traderjoes.com/ca/woodland-hills/209/,-118.5923118,34.1672602,woodland-hills,ca
Trader Joe's Yorba Linda,176,714-970-0116,"  19655 Yorba Linda Blvd Yorba Linda, CA 92886 ",https://locations.traderjoes.com/ca/yorba-linda/176/,-117.7921699,33.8897262,yorba-linda,ca
Trader Joe's Boulder,301,303-443-0160,"  1906 28th St Boulder, CO 80301 ",https://locations.traderjoes.com/co/boulder/301/,-105.2578411,40.0202684,boulder,co
Trader Joe's Colorado Springs,305,719-264-0123,"  5342 N Nevada Ave Colorado Springs, CO 80918 ",https://locations.traderjoes.com/co/colorado-springs/305/,-104.8172815,38.9072763,colorado-springs,co
Trader Joe's Colorado Springs Wine Shop,315,719-266-6838,"  5338 N Nevada Avenue Colorado Springs, CO 80918 ",https://locations.traderjoes.com/co/colorado-springs/315/,-104.8168953,38.9071557,colorado-springs,co
Trader Joe's Denver,302,303-318-7112,"  661 Logan Street Denver, CO 80203 ",https://locations.traderjoes.com/co/denver/302/,-104.9827877,39.7268649,denver,co
Trader Joe's Denver Grocery,300,303-321-1003,"  750 N Colorado Blvd Denver, CO 80206 ",https://locations.traderjoes.com/co/denver/300/,-104.9402543,39.7288282,denver,co
Trader Joe's Denver Wine Shop,310,303-321-3245,"  790 N Colorado Blvd Denver, CO 80206 ",https://locations.traderjoes.com/co/denver/310/,-104.9402933,39.729035,denver,co
Trader Joe's Fort Collins,304,970-223-3560,"  3500 S College Ave, Ste 110 Fort Collins, CO 80525 ",https://locations.traderjoes.com/co/fort-collins/304/,-105.0752866,40.5393421,fort-collins,co
Trader Joe's Greenwood Village,303,303-730-3848,"  5910 S University Blvd, Suite E1 Greenwood Village, CO 80121 ",https://locations.traderjoes.com/co/greenwood-village/303/,-104.9584163,39.6080792,greenwood-village,co
Trader Joe's Littleton,306,720-981-4563,"  8055 West Bowles Ave Littleton, CO 80123 ",https://locations.traderjoes.com/co/littleton/306/,-105.0888051,39.611724,littleton,co
Trader Joe's Parker,309,720-851-0549,"  18374 Cottonwood Drive #150 Parker, CO 80138 ",https://locations.traderjoes.com/co/parker/309/,-104.7776188,39.5563188,parker,co
Trader Joe's Danbury,525,203-739-0098,"  113 Mill Plain Rd Danbury, CT 06811 ",https://locations.traderjoes.com/ct/danbury/525/,-73.5215003,41.3932099,danbury,ct
Trader Joe's Darien,522,203-656-1414,"  436 Boston Post Rd Darien, CT 06820 ",https://locations.traderjoes.com/ct/darien/522/,-73.4617098,41.0844564,darien,ct
Trader Joe's Fairfield,523,203-330-8301,"  2258 Black Rock Turnpike Fairfield, CT 06825 ",https://locations.traderjoes.com/ct/fairfield/523/,-73.253173,41.1831393,fairfield,ct
Trader Joe's Glastonbury,586,860-633-9270,"  400 Hebron Ave Glastonbury, CT 06033 ",https://locations.traderjoes.com/ct/glastonbury/586/,-72.5998159,41.7134698,glastonbury,ct
Trader Joe's Manchester,563,860-644-3182,"  1510 Pleasant Valley Road Manchester, CT 06042 ",https://locations.traderjoes.com/ct/manchester/563/,-72.5576549,41.8067497,manchester,ct
Trader Joe's Orange,524,203-795-5505,"  560 Boston Post Rd Orange, CT 06477 ",https://locations.traderjoes.com/ct/orange/524/,-73.0188747,41.2508125,orange,ct
Trader Joe's Stamford,529,203-321-8440,"  1041 High Ridge Rd Stamford, CT 06905 ",https://locations.traderjoes.com/ct/stamford/529/,-73.5473117,41.1068964,stamford,ct
Trader Joe's West Hartford,526,860-561-4771,"  1489 New Britain Ave West Hartford, CT 06110 ",https://locations.traderjoes.com/ct/west-hartford/526/,-72.7580509,41.7234651,west-hartford,ct
Trader Joe's Westport,521,203-226-8966,"  400 Post Road E Westport, CT 06880 ",https://locations.traderjoes.com/ct/westport/521/,-73.3519417,41.1398413,westport,ct
Trader Joe's Glover Park,620,202-944-8403,"  2101 Wisconsin Ave NW Suite A Washington, DC 20007 ",https://locations.traderjoes.com/dc/washington/620/,-77.06833,38.91771,washington,dc
Trader Joe's Washington - 14th St,662,202-986-1591,"  1914 14th St NW Washington, DC 20009 ",https://locations.traderjoes.com/dc/washington/662/,-77.0321896,38.9160454,washington,dc
Trader Joe's Washington - 25th St,653,202-296-1921,"  1101 25th Street NW Washington, DC 20037 ",https://locations.traderjoes.com/dc/washington/653/,-77.0530228,38.9040929,washington,dc
Trader Joe's Washington - Capitol Hill,622,202-698-0190,"  750 Pennsylvania Ave SE Washington, DC 20003 ",https://locations.traderjoes.com/dc/washington/622/,-76.9952324,38.8852918,washington,dc
Trader Joe's Washington - Union Market District,621,202-608-1023,"  350 Florida Ave. NE Washington, DC 20002 ",https://locations.traderjoes.com/dc/washington/621/,-77.0008016,38.9075662,washington,dc
Trader Joe's Christiana,759,302-292-6825,"  2500 Fashion Center Blvd. Newark, DE 19702 ",https://locations.traderjoes.com/de/newark/759/,-75.6472659,39.671006,newark,de
Trader Joe's Wilmington,636,302-478-8494,"  5605 Concord Pike Wilmington, DE 19803 ",https://locations.traderjoes.com/de/wilmington/636/,-75.5417242,39.8338327,wilmington,de
Trader Joe's Boca Raton,773,561-338-5031,"  855 S Federal Hwy Boca Raton, FL 33432 ",https://locations.traderjoes.com/fl/boca-raton/773/,-80.086579,26.3422503,boca-raton,fl
Trader Joe's Lakewood Ranch,780,941-355-2394,"  8111 Cooper Creek Blvd Bradenton, FL 34201 ",https://locations.traderjoes.com/fl/bradenton/780/,-82.4538654,27.3912601,bradenton,fl
Trader Joe's Coral Gables,781,305-442-5402,"  211 S. Dixie Highway Coral Gables, FL 33133 ",https://locations.traderjoes.com/fl/coral-gables/781/,-80.2580869,25.7292643,coral-gables,fl
Trader Joe's Coral Springs,782,954-227-3407,"  2796 N. University Drive Coral Springs, FL 33065 ",https://locations.traderjoes.com/fl/coral-springs/782/,-80.2501582,26.2650525,coral-springs,fl
Trader Joe's Davie,778,954-512-2968,"  2296 S University Dr Davie, FL 33324 ",https://locations.traderjoes.com/fl/davie/778/,-80.2519958,26.0928399,davie,fl
Trader Joe's Delray Beach,771,561-278-1493,"  1851 S Federal Highway #500 Delray Beach, FL 33483 ",https://locations.traderjoes.com/fl/delray-beach/771/,-80.0700877,26.4389108,delray-beach,fl
Trader Joe's Fort Lauderdale,776,954-537-3585,"  1560 N Federal Hwy Fort Lauderdale, FL 33304 ",https://locations.traderjoes.com/fl/fort-lauderdale/776/,-80.1189987,26.14812,fort-lauderdale,fl
Trader Joe's Fort Myers,784,239-275-1712,"  4983 S. Cleveland Avenue Fort Myers, FL 33907 ",https://locations.traderjoes.com/fl/fort-myers/784/,-81.8696431,26.5871679,fort-myers,fl
Trader Joe's Gainesville,764,352-378-9321,"  3724 SW Archer Rd Gainesville, FL 32608 ",https://locations.traderjoes.com/fl/gainesville/764/,-82.3799788,29.6232817,gainesville,fl
Trader Joe's Jacksonville,769,904-880-0582,"  11112 San Jose Blvd Jacksonville, FL 32223 ",https://locations.traderjoes.com/fl/jacksonville/769/,-81.6301983,30.173927,jacksonville,fl
Trader Joe's Jacksonville Beach,760,904-241-1770,"  4180 S 3rd St Jacksonville Beach, FL 32250 ",https://locations.traderjoes.com/fl/jacksonville-beach/760/,-81.3898053,30.2569923,jacksonville-beach,fl
Trader Joe's Miami - Midtown,794,786-422-0606,"  3191 NE 1st Ave Miami, FL 33137 ",https://locations.traderjoes.com/fl/miami/794/,-80.1926601,25.806877,miami,fl
Trader Joe's Pinecrest,770,305-661-1432,"  9205 S Dixie Hwy Miami, FL 33156 ",https://locations.traderjoes.com/fl/miami/770/,-80.3125623,25.6844073,miami,fl
Trader Joe's Miami Beach,779,305-534-4951,"  1683 West Ave Miami Beach, FL 33139 ",https://locations.traderjoes.com/fl/miami-beach/779/,-80.142155,25.791789,miami-beach,fl
Trader Joe's Naples,762,239-596-5631,"  10600 Tamiami Trail N Naples, FL 34108 ",https://locations.traderjoes.com/fl/naples/762/,-81.8005297,26.2681317,naples,fl
Trader Joe's Orlando Dr. Phillips,768,407-345-0611,"  8323 Sand Lake Rd Orlando, FL 32819 ",https://locations.traderjoes.com/fl/orlando/768/,-81.4965868,28.4503045,orlando,fl
Trader Joe's Palm Beach Gardens,772,561-514-6455,"  2560 PGA Blvd Palm Beach Gardens, FL 33410 ",https://locations.traderjoes.com/fl/palm-beach-gardens/772/,-80.0741839,26.8437756,palm-beach-gardens,fl
Trader Joe's Palm Harbor,795,,"  33591 US Hwy 19 N Palm Harbor, FL 34684 ",https://locations.traderjoes.com/fl/palm-harbor/795/,-82.7372429,28.0779211,palm-harbor,fl
Trader Joe's Pembroke Pines,775,954-432-0405,"  11960 Pines Blvd Pembroke Pines, FL 33026 ",https://locations.traderjoes.com/fl/pembroke-pines/775/,-80.3107778,26.0058489,pembroke-pines,fl
Trader Joe's Sarasota,761,941-922-5727,"  4101 S Tamiami Trail Sarasota, FL 34231 ",https://locations.traderjoes.com/fl/sarasota/761/,-82.530019,27.294762,sarasota,fl
Trader Joe's St. Petersburg,767,727-824-0907,"  2742 4th St N St. Petersburg, FL 33704 ",https://locations.traderjoes.com/fl/st.-petersburg/767/,-82.6388275,27.7974016,st.-petersburg,fl
Trader Joe's Tallahassee,763,850-894-2538,"  3425 Thomasville Rd Tallahassee, FL 32309 ",https://locations.traderjoes.com/fl/tallahassee/763/,-84.2498578,30.5032316,tallahassee,fl
Trader Joe's Tampa,766,813-872-6846,"  3808 W Swann Ave Tampa, FL 33609 ",https://locations.traderjoes.com/fl/tampa/766/,-82.506331,27.9372655,tampa,fl
Trader Joe's Wellington,774,561-656-1067,"  2877 South State Rd 7 Wellington, FL 33414 ",https://locations.traderjoes.com/fl/wellington/774/,-80.2041113,26.6377593,wellington,fl
Trader Joe's Winter Park,765,407-622-0874,"  131 Orlando Ave. Winter Park, FL 32789 ",https://locations.traderjoes.com/fl/winter-park/765/,-81.3655605,28.5983113,winter-park,fl
Trader Joe's Athens,736,706-583-8934,"  1850 Epps Bridge Pkwy Athens, GA 30606 ",https://locations.traderjoes.com/ga/athens/736/,-83.4436789,33.9156039,athens,ga
Trader Joe's Atlanta,730,404-815-9210,"  931 Monroe Dr Atlanta, GA 30308 ",https://locations.traderjoes.com/ga/atlanta/730/,-84.3670198,33.7787545,atlanta,ga
Trader Joe's Buckhead,735,404-842-0907,"  3183 Peachtree Rd Atlanta, GA 30305 ",https://locations.traderjoes.com/ga/atlanta/735/,-84.3749866,33.8409526,atlanta,ga
Trader Joe's Marietta,732,678-560-3585,"  4250 Roswell Road Marietta, GA 30062 ",https://locations.traderjoes.com/ga/marietta/732/,-84.4263282,33.9832962,marietta,ga
Trader Joe's Norcross - Peachtree Corners,734,678-966-9236,"  5185 Peachtree Pkwy Norcross, GA 30092 ",https://locations.traderjoes.com/ga/norcross/734/,-84.2195636,33.979183,norcross,ga
Trader Joe's Roswell,733,770-645-8505,"  635 W Crossville Rd Roswell, GA 30075 ",https://locations.traderjoes.com/ga/roswell/733/,-84.3796266,34.0593442,roswell,ga
Trader Joe's Sandy Springs,731,404-236-2414,"  6277 Roswell Road NE Sandy Springs, GA 30328 ",https://locations.traderjoes.com/ga/sandy-springs/731/,-84.3780993,33.9262448,sandy-springs,ga
Trader Joe's Sandy Springs,799,,"  4600 Roswell Rd Sandy Springs, GA 30342 ",https://locations.traderjoes.com/ga/sandy-springs/799/,-84.3815912,33.8796868,sandy-springs,ga
Trader Joe's Coralville,728,319-351-7223,"  920 Ponseti Way Coralville, IA 52241 ",https://locations.traderjoes.com/ia/coralville/728/,-91.5647228,41.6833223,coralville,ia
Trader Joe's W Des Moines,721,515-225-3820,"  6305 Mills Civic Pkwy West Des Moines, IA 50266 ",https://locations.traderjoes.com/ia/west-des-moines/721/,-93.7933626,41.5615576,west-des-moines,ia
Trader Joe's Boise,360,208-336-7282,"  300 S Capitol Blvd Boise, ID 83702 ",https://locations.traderjoes.com/id/boise/360/,-116.2037053,43.6130276,boise,id
Trader Joe's Coeur d'Alene,362,,"  303 E Spokane Ave Coeur d'Alene, ID 83814 ",https://locations.traderjoes.com/id/coeur-d-alene/362/,-116.7814542,47.6879048,coeur-d-alene,id
Trader Joe's Meridian,361,208-506-2978,"  2986 N. Eagle RD. Meridian, ID 83646 ",https://locations.traderjoes.com/id/meridian/361/,-116.3518891,43.6320993,meridian,id
Trader Joe's Algonquin,699,847-854-4886,"  1800 S Randall Rd Algonquin, IL 60102 ",https://locations.traderjoes.com/il/algonquin/699/,-88.3398334,42.1534435,algonquin,il
Trader Joe's Arlington Heights,687,847-506-0752,"  17 W Rand Rd Arlington Heights, IL 60004 ",https://locations.traderjoes.com/il/arlington-heights/687/,-87.9826671,42.1129268,arlington-heights,il
Trader Joe's Batavia,689,630-879-3234,"  1942 W Fabyan Pkwy Batavia, IL 60510 ",https://locations.traderjoes.com/il/batavia/689/,-88.338489,41.8638735,batavia,il
Trader Joe's Chicago,688,773-248-4920,"  3745 N Lincoln Ave Chicago, IL 60613 ",https://locations.traderjoes.com/il/chicago/688/,-87.6751404,41.9498851,chicago,il
Trader Joe's Chicago - Diversey Pkwy,703,773-935-7255,"  667 W Diversey Pkwy Chicago, IL 60614 ",https://locations.traderjoes.com/il/chicago/703/,-87.6462646,41.9324176,chicago,il
Trader Joe's Chicago - Lincoln Park,691,312-274-9733,"  1840 N Clybourn Ave Chicago, IL 60614 ",https://locations.traderjoes.com/il/chicago/691/,-87.6549833,41.9144861,chicago,il
Trader Joe's Chicago - River North,696,312-951-6369,"  44 E Ontario St Chicago, IL 60611 ",https://locations.traderjoes.com/il/chicago/696/,-87.6263096,41.8934274,chicago,il
Trader Joe's Chicago - South Loop,701,312-588-0489,"  1147 S Wabash Ave Chicago, IL 60605 ",https://locations.traderjoes.com/il/chicago/701/,-87.625389,41.867746,chicago,il
Trader Joe's Hyde Park,706,773-363-8831,"  1528 E 55th Street Chicago, IL 60615 ",https://locations.traderjoes.com/il/chicago/706/,-87.588384,41.796396,chicago,il
Trader Joe's Downers Grove,683,630-241-1662,"  122 Ogden Ave Downers Grove, IL 60515 ",https://locations.traderjoes.com/il/downers-grove/683/,-87.9890937,41.8110584,downers-grove,il
Trader Joe's Evanston,702,847-733-0690,"  1211 Chicago Avenue Evanston, IL 60202 ",https://locations.traderjoes.com/il/evanston/702/,-87.6800329,42.0397785,evanston,il
Trader Joe's Glen Ellyn,680,630-858-5077,"  680 Roosevelt Rd Glen Ellyn, IL 60137 ",https://locations.traderjoes.com/il/glen-ellyn/680/,-88.0586561,41.8605268,glen-ellyn,il
Trader Joe's Glenview,681,847-657-7821,"  1407 Waukegan Rd Glenview, IL 60025 ",https://locations.traderjoes.com/il/glenview/681/,-87.7971929,42.0809674,glenview,il
Trader Joe's La Grange,685,708-579-0838,"  25 N La Grange Rd La Grange, IL 60525 ",https://locations.traderjoes.com/il/la-grange/685/,-87.8693557,41.8173165,la-grange,il
Trader Joe's Lake Zurich,684,847-550-7827,"  735 W Route 22 Lake Zurich, IL 60047 ",https://locations.traderjoes.com/il/lake-zurich/684/,-88.1090051,42.1887711,lake-zurich,il
Trader Joe's Libertyville,704,847-680-1739,"  1600 S Milwaukee Ave Libertyville, IL 60048 ",https://locations.traderjoes.com/il/libertyville/704/,-87.946718,42.255041,libertyville,il
Trader Joe's Naperville,690,630-355-4389,"  44 W Gartner Rd Naperville, IL 60540 ",https://locations.traderjoes.com/il/naperville/690/,-88.1405028,41.7545412,naperville,il
Trader Joe's Northbrook,682,847-480-9280,"  127 Skokie Blvd Northbrook, IL 60062 ",https://locations.traderjoes.com/il/northbrook/682/,-87.7983116,42.1502628,northbrook,il
Trader Joe's Oak Park,697,708-386-1169,"  483 N Harlem Ave Oak Park, IL 60301 ",https://locations.traderjoes.com/il/oak-park/697/,-87.8047896,41.8902787,oak-park,il
Trader Joe's Orland Park,686,708-349-9021,"  14924 S La Grange Rd Orland Park, IL 60462 ",https://locations.traderjoes.com/il/orland-park/686/,-87.8546212,41.6180449,orland-park,il
Trader Joe's Park Ridge,698,847-292-1108,"  190 N NW Highway Park Ridge, IL 60068 ",https://locations.traderjoes.com/il/park-ridge/698/,-87.8323637,42.0127157,park-ridge,il
Trader Joe's Schaumburg,705,847-619-0095,"  1426 E Golf Rd Schaumburg, IL 60173 ",https://locations.traderjoes.com/il/schaumburg/705/,-88.041887,42.0510988,schaumburg,il
Trader Joe's Fort Wayne,757,260-432-5828,"  4110 W. Jefferson Blvd. Fort Wayne, IN 46804 ",https://locations.traderjoes.com/in/fort-wayne/757/,-85.1953587,41.0717432,fort-wayne,in
Trader Joe's Indianapolis - Castleton,671,317-595-8950,"  5473 E 82nd St Indianapolis, IN 46250 ",https://locations.traderjoes.com/in/indianapolis/671/,-86.0751813,39.9037062,indianapolis,in
Trader Joe's Indianapolis - W 86th,670,317-337-1880,"  2902 W 86th St Indianapolis, IN 46268 ",https://locations.traderjoes.com/in/indianapolis/670/,-86.2117997,39.9125685,indianapolis,in
Trader Joe's South Bend,600,574-472-8744,"  1140 East Howard South Bend, IN 46617 ",https://locations.traderjoes.com/in/south-bend/600/,-86.2335152,41.6881057,south-bend,in
Trader Joe's Leawood,723,913-327-7209,"  4201 W 119th St Leawood, KS 66209 ",https://locations.traderjoes.com/ks/leawood/723/,-94.6357532,38.912425,leawood,ks
Trader Joe's Wichita,729,316-634-1846,"  1800 N. Rock Road Wichita, KS 67206 ",https://locations.traderjoes.com/ks/wichita/729/,-97.2434102,37.7163687,wichita,ks
Trader Joe's Crestview Hills Grocery,788,859-331-0034,"  2780 Dixie Highway Crestview Hills, KY 41017 ",https://locations.traderjoes.com/ky/crestview-hills/788/,-84.5771089,39.0288001,crestview-hills,ky
Trader Joe's Crestview Hills Wine Shop,789,859-331-1472,"  2785 Dixie Highway Crestview Hills, KY 41017 ",https://locations.traderjoes.com/ky/crestview-hills/789/,-84.5773244,39.0261133,crestview-hills,ky
Trader Joe's Lexington Grocery,627,859-313-5030,"  2326 Nicholasville Rd Lexington, KY 40503 ",https://locations.traderjoes.com/ky/lexington/627/,-84.5183628,38.0049273,lexington,ky
Trader Joe's Lexington Wine Shop,626,859-277-0144,"  2320 Nicholasville Road Lexington, KY 40503 ",https://locations.traderjoes.com/ky/lexington/626/,-84.5185124,38.0049274,lexington,ky
Trader Joe's Louisville Grocery,628,502-895-1361,"  4600 Shelbyville Rd Ste 111 Louisville, KY 40207 ",https://locations.traderjoes.com/ky/louisville/628/,-85.6299971,38.2492748,louisville,ky
Trader Joe's Louisville Wine Shop,625,502-895-7872,"  4600 Shelbyville Rd Ste 112 Louisville, KY 40207 ",https://locations.traderjoes.com/ky/louisville/625/,-85.6299971,38.2492748,louisville,ky
Trader Joe's Baton Rouge,754,225-382-0588,"  3535 Perkins Rd Baton Rouge, LA 70808 ",https://locations.traderjoes.com/la/baton-rouge/754/,-91.1535964,30.4224095,baton-rouge,la
Trader Joe's Metairie,755,504-831-0253,"  2949 Veterans Blvd Metairie, LA 70002 ",https://locations.traderjoes.com/la/metairie/755/,-90.1520588,30.0044051,metairie,la
Trader Joe's Acton,511,978-266-8908,"  145 Great Rd Acton, MA 01720 ",https://locations.traderjoes.com/ma/acton/511/,-71.4152791,42.4832101,acton,ma
Trader Joe's Allston,561,617-787-1238,"  199 North Harvard Street Allston, MA 02134 ",https://locations.traderjoes.com/ma/allston/561/,-71.1298352,42.3635097,allston,ma
Trader Joe's Arlington,505,781-646-9138,"  1427 Massachusetts Ave Arlington, MA 02476 ",https://locations.traderjoes.com/ma/arlington/505/,-71.1888223,42.4254178,arlington,ma
Trader Joe's Boston - Back Bay,510,617-262-6505,"  899 Boylston St Boston, MA 02115 ",https://locations.traderjoes.com/ma/boston/510/,-71.0840861,42.3484566,boston,ma
Trader Joe's Boston,500,617-693-6302,"  500 Boylston St Boston, MA 02116 ",https://locations.traderjoes.com/ma/boston/500/,-71.0744717,42.3503741,boston,ma
Trader Joe's Fort Point Seaport,566,617-941-3714,"  44 Thomson Place Boston, MA 02210 ",https://locations.traderjoes.com/ma/boston/566/,-71.0472696,42.3518578,boston,ma
Trader Joe's Brookline,501,617-278-9997,"  1317 Beacon St Brookline, MA 02446 ",https://locations.traderjoes.com/ma/brookline/501/,-71.1205422,42.3419953,brookline,ma
Trader Joe's Burlington,515,781-273-2310,"  51 Middlesex Turnpike Burlington, MA 01803 ",https://locations.traderjoes.com/ma/burlington/515/,-71.2106665,42.473428,burlington,ma
Trader Joe's Cambridge,502,617-491-8582,"  748 Memorial Dr Cambridge, MA 02139 ",https://locations.traderjoes.com/ma/cambridge/502/,-71.1141683,42.3582624,cambridge,ma
Trader Joe's Cambridge Fresh Pond,517,617-498-3201,"  211 Alewife Brook Pkwy Cambridge, MA 02138 ",https://locations.traderjoes.com/ma/cambridge/517/,-71.1435906,42.390022,cambridge,ma
Trader Joe's Foxborough - Patriot Place,528,508-543-1978,"  350 Patriot Place Foxborough, MA 02035 ",https://locations.traderjoes.com/ma/foxborough/528/,-71.2692716,42.0866187,foxborough,ma
Trader Joe's Framingham,503,508-935-2931,"  659 Worcester Rd Framingham, MA 01701 ",https://locations.traderjoes.com/ma/framingham/503/,-71.4252299,42.2991166,framingham,ma
Trader Joe's Hadley,512,413-587-3260,"  375 Russell St Hadley, MA 01035 ",https://locations.traderjoes.com/ma/hadley/512/,-72.5493664,42.3577603,hadley,ma
Trader Joe's Hanover,513,339-298-1530,"  1775 Washington St Hanover, MA 02339 ",https://locations.traderjoes.com/ma/hanover/513/,-70.8316142,42.122497,hanover,ma
Trader Joe's Hingham,530,781-740-2038,"  5 Essington Drive Hingham, MA 02043 ",https://locations.traderjoes.com/ma/hingham/530/,-70.9237968,42.2490667,hingham,ma
Trader Joe's Hyannis,514,508-790-3008,"  655 Iyannough Road Rt 132 Hyannis, MA 02601 ",https://locations.traderjoes.com/ma/hyannis/514/,-70.2750078,41.6595549,hyannis,ma
Trader Joe's Needham Heights,504,781-449-6993,"  958 Highland Ave Needham, MA 02494 ",https://locations.traderjoes.com/ma/needham/504/,-71.2348917,42.292737,needham,ma
Trader Joe's Peabody,516,978-977-5316,"  300 Andover St Peabody, MA 01960 ",https://locations.traderjoes.com/ma/peabody/516/,-70.9565375,42.5497457,peabody,ma
Trader Joe's Saugus,506,781-231-0848,"  358 Broadway Saugus, MA 01906 ",https://locations.traderjoes.com/ma/saugus/506/,-71.017554,42.4834902,saugus,ma
Trader Joe's Shrewsbury,508,508-755-9560,"  77 Boston Turnpike Shrewsbury, MA 01545 ",https://locations.traderjoes.com/ma/shrewsbury/508/,-71.7512196,42.2753458,shrewsbury,ma
Trader Joe's Somerville,560,617-591-0124,"  145 Middlesex Ave Somerville, MA 02145 ",https://locations.traderjoes.com/ma/somerville/560/,-71.0828193,42.3956168,somerville,ma
Trader Joe's West Newton,509,617-244-1620,"  1121 Washington St West Newton, MA 02465 ",https://locations.traderjoes.com/ma/west-newton/509/,-71.2194379,42.3498471,west-newton,ma
Trader Joe's Annapolis,650,410-573-0505,"  160 F Jennifer Rd Annapolis, MD 21401 ",https://locations.traderjoes.com/md/annapolis/650/,-76.540243,38.9889202,annapolis,md
Trader Joe's Bethesda,645,301-907-0982,"  6831 Wisconsin Ave Bethesda, MD 20815 ",https://locations.traderjoes.com/md/bethesda/645/,-77.0905313,38.978257,bethesda,md
Trader Joe's Bethesda - Downtown,623,301-215-7913,"  7900 Wisconsin Ave Bethesda, MD 20814 ",https://locations.traderjoes.com/md/bethesda/623/,-77.0957017,38.9896194,bethesda,md
Trader Joe's College Park,758,301-985-3704,"  4429 Calvert Road College Park, MD 20740 ",https://locations.traderjoes.com/md/college-park/758/,-76.9375308,38.9784414,college-park,md
Trader Joe's Columbia,658,410-953-8139,"  6610 Marie Curie Dr Elkridge, MD 21075 ",https://locations.traderjoes.com/md/elkridge/658/,-76.7956374,39.1883169,elkridge,md
Trader Joe's Pikesville,655,410-484-8373,"  1809 Reisterstown Rd Pikesville, MD 21208 ",https://locations.traderjoes.com/md/pikesville/655/,-76.7360871,39.3881322,pikesville,md
Trader Joe's North Potomac,648,301-762-0782,"  10076 Darnestown Rd Rockville, MD 20850 ",https://locations.traderjoes.com/md/rockville/648/,-77.2067876,39.0965444,rockville,md
Trader Joe's Rockville,642,301-468-6656,"  12268-H Rockville Pike Rockville, MD 20852 ",https://locations.traderjoes.com/md/rockville/642/,-77.1223481,39.0570549,rockville,md
Trader Joe's Silver Spring,652,301-681-1675,"  10741 Columbia Pike Silver Spring, MD 20901 ",https://locations.traderjoes.com/md/silver-spring/652/,-77.0035012,39.0313332,silver-spring,md
Trader Joe's Towson,649,410-321-0276,"  800 Kenilworth Drive Towson, MD 21204 ",https://locations.traderjoes.com/md/towson/649/,-76.6192304,39.4114587,towson,md
Trader Joe's Portland,519,207-699-3799,"  87 Marginal Way Portland, ME 04101 ",https://locations.traderjoes.com/me/portland/519/,-70.2646208,43.6618148,portland,me
Trader Joe's Ann Arbor,678,734-975-2455,"  2398 East Stadium Blvd Ann Arbor, MI 48104 ",https://locations.traderjoes.com/mi/ann-arbor/678/,-83.7130225,42.258405,ann-arbor,mi
Trader Joe's Bloomfield Hills,675,248-855-2283,"  6536 Telegraph Rd Bloomfield Hills, MI 48301 ",https://locations.traderjoes.com/mi/bloomfield-hills/675/,-83.2867635,42.5441271,bloomfield-hills,mi
Trader Joe's East Lansing,804,,"  2755 East Grand River Avenue East Lansing, MI 48823 ",https://locations.traderjoes.com/mi/east-lansing/804/,-84.4525631,42.7262219,east-lansing,mi
Trader Joe's Grosse Pointe,665,313-640-7794,"  17028 Kercheval Ave Grosse Pointe, MI 48230 ",https://locations.traderjoes.com/mi/grosse-pointe/665/,-82.915887,42.389772,grosse-pointe,mi
Trader Joe's Kalamazoo,708,269-372-2049,"  5099 Century Ave Kalamazoo, MI 49006 ",https://locations.traderjoes.com/mi/kalamazoo/708/,-85.6499899,42.2701259,kalamazoo,mi
Trader Joe's Grand Rapids - Kentwood,707,616-977-1819,"  3684 28th St SE Kentwood, MI 49512 ",https://locations.traderjoes.com/mi/kentwood/707/,-85.5766868,42.9119665,kentwood,mi
Trader Joe's Northville,667,248-349-4909,"  18771 Traditions Drive Northville, MI 48167 ",https://locations.traderjoes.com/mi/northville/667/,-83.4337553,42.4227691,northville,mi
Trader Joe's Rochester Hills,668,248-375-2190,"  3044 Walton Blvd Rochester Hills, MI 48309 ",https://locations.traderjoes.com/mi/rochester-hills/668/,-83.1941111,42.6806977,rochester-hills,mi
Trader Joe's Royal Oak,674,248-582-9002,"  27880 Woodward Ave Royal Oak, MI 48067 ",https://locations.traderjoes.com/mi/royal-oak/674/,-83.1636857,42.4954068,royal-oak,mi
Trader Joe's Bloomington,724,952-835-8640,"  4270 W 78th St Bloomington, MN 55435 ",https://locations.traderjoes.com/mn/bloomington/724/,-93.332769,44.859243,bloomington,mn
Trader Joe's Eagan,717,651-362-4841,"  2065 Cliff Road Eagan, MN 55122 ",https://locations.traderjoes.com/mn/eagan/717/,-93.2128195,44.7902333,eagan,mn
Trader Joe's Maple Grove,713,763-315-1739,"  12105 Elm Creek Blvd N Maple Grove, MN 55369 ",https://locations.traderjoes.com/mn/maple-grove/713/,-93.4340902,45.0921896,maple-grove,mn
Trader Joe's Minneapolis,725,612-339-2110,"  721 Washington Ave S Minneapolis, MN 55415 ",https://locations.traderjoes.com/mn/minneapolis/725/,-93.2582,44.976464,minneapolis,mn
Trader Joe's Minnetonka,714,952-417-9080,"  11220 Wayzata Blvd Minnetonka, MN 55305 ",https://locations.traderjoes.com/mn/minnetonka/714/,-93.4227576,44.9734888,minnetonka,mn
Trader Joe's Rochester,718,507-281-4411,"  1200 16th St SW Rochester, MN 55902 ",https://locations.traderjoes.com/mn/rochester/718/,-92.481255,44.0003608,rochester,mn
Trader Joe's Shoreview,727,651-765-1398,"  1041 Red Fox Rd Shoreview, MN 55126 ",https://locations.traderjoes.com/mn/shoreview/727/,-93.1447262,45.05799,shoreview,mn
Trader Joe's St. Louis Park,710,952-285-1053,"  4500 Excelsior Blvd St. Louis Park, MN 55416 ",https://locations.traderjoes.com/mn/st.-louis-park/710/,-93.337399,44.934592,st.-louis-park,mn
Trader Joe's St. Paul,716,651-698-3119,"  484 Lexington Pkwy S St. Paul, MN 55105 ",https://locations.traderjoes.com/mn/st.-paul/716/,-93.1458914,44.926697,st.-paul,mn
Trader Joe's Woodbury,715,651-735-0269,"  8960 Hudson Rd. Ste. 801 Woodbury, MN 55125 ",https://locations.traderjoes.com/mn/woodbury/715/,-92.9226673,44.945734,woodbury,mn
Trader Joe's Brentwood,692,314-963-0253,"  48 Brentwood Promenade Court Brentwood, MO 63144 ",https://locations.traderjoes.com/mo/brentwood/692/,-90.3412312,38.6273335,brentwood,mo
Trader Joe's Chesterfield,693,636-536-7846,"  1679 Clarkson Rd Chesterfield, MO 63017 ",https://locations.traderjoes.com/mo/chesterfield/693/,-90.5665562,38.6448973,chesterfield,mo
Trader Joe's Creve Coeur,694,314-569-0427,"  11505 Olive Blvd Creve Coeur, MO 63141 ",https://locations.traderjoes.com/mo/creve-coeur/694/,-90.4364196,38.6719545,creve-coeur,mo
Trader Joe's Des Peres,695,314-984-5051,"  13343 Manchester Rd Des Peres, MO 63131 ",https://locations.traderjoes.com/mo/des-peres/695/,-90.4671556,38.601039,des-peres,mo
Trader Joe's Kansas City,720,816-333-5322,"  8600 Ward Pkwy Kansas City, MO 64114 ",https://locations.traderjoes.com/mo/kansas-city/720/,-94.60684,38.9706721,kansas-city,mo
Trader Joe's Asheville,740,828-232-5078,"  120 Merrimon Ave Asheville, NC 28801 ",https://locations.traderjoes.com/nc/asheville/740/,-82.5535733,35.603047,asheville,nc
Trader Joe's Cary,741,919-465-5984,"  1393 Kildaire Farm Rd Cary, NC 27511 ",https://locations.traderjoes.com/nc/cary/741/,-78.7815442,35.758902,cary,nc
Trader Joe's Chapel Hill,745,919-918-7871,"  1800 E Franklin St Chapel Hill, NC 27514 ",https://locations.traderjoes.com/nc/chapel-hill/745/,-79.0250849,35.9369332,chapel-hill,nc
Trader Joe's Charlotte,744,704-334-0737,"  1133 Metropolitan Ave Charlotte, NC 28204 ",https://locations.traderjoes.com/nc/charlotte/744/,-80.8356337,35.2117805,charlotte,nc
Trader Joe's Charlotte - North,743,704-688-9578,"  1820 E Arbors Dr Charlotte, NC 28262 ",https://locations.traderjoes.com/nc/charlotte/743/,-80.7545264,35.3368095,charlotte,nc
Trader Joe's Charlotte - Piper Glen,742,704-543-5249,"  6418 Rea Rd Charlotte, NC 28277 ",https://locations.traderjoes.com/nc/charlotte/742/,-80.8179279,35.0788563,charlotte,nc
Trader Joe's Greensboro,750,336-286-7859,"  3721 Battleground Ave. Greensboro, NC 27410 ",https://locations.traderjoes.com/nc/greensboro/750/,-79.8577703,36.1312909,greensboro,nc
Trader Joe's Morrisville,791,919-460-4449,"  951 Morrisville Parkway Morrisville, NC 27560 ",https://locations.traderjoes.com/nc/morrisville/791/,-78.8176467,35.8094722,morrisville,nc
Trader Joe's Raleigh,746,919-981-7422,"  3000 Wake Forest Rd Raleigh, NC 27609 ",https://locations.traderjoes.com/nc/raleigh/746/,-78.6217112,35.8232408,raleigh,nc
Trader Joe's Raleigh,748,,"  8111 Creedmoor Rd Raleigh, NC 27613 ",https://locations.traderjoes.com/nc/raleigh/748/,-78.6827852,35.8979488,raleigh,nc
Trader Joe's Wilmington,747,910-395-5173,"  1437 S College Rd Wilmington, NC 28403 ",https://locations.traderjoes.com/nc/wilmington/747/,-77.8857637,34.2107721,wilmington,nc
Trader Joe's Winston Salem,749,336-721-1744,"  252 South Stratford Road Winston Salem, NC 27103 ",https://locations.traderjoes.com/nc/winston-salem/749/,-80.2815976,36.092756,winston-salem,nc
Trader Joe's Lincoln,722,402-328-0120,"  3120 Pine Lake Rd Lincoln, NE 68516 ",https://locations.traderjoes.com/ne/lincoln/722/,-96.674546,40.742601,lincoln,ne
Trader Joe's Omaha,719,402-391-3698,"  10305 Pacific St Omaha, NE 68114 ",https://locations.traderjoes.com/ne/omaha/719/,-96.0739732,41.2482854,omaha,ne
Trader Joe's Bedford,562,603-222-3074,"  2 Market Street Bedford, NH 03110 ",https://locations.traderjoes.com/nh/bedford/562/,-71.4772211,42.9537285,bedford,nh
Trader Joe's Nashua,507,603-888-5460,"  262 Daniel Webster HWY Nashua, NH 03060 ",https://locations.traderjoes.com/nh/nashua/507/,-71.4384243,42.7080149,nashua,nh
Trader Joe's Newington/Portsmouth,520,603-431-2654,"  45 Gosling Rd Portsmouth, NH 03801 ",https://locations.traderjoes.com/nh/portsmouth/520/,-70.7995453,43.0945115,portsmouth,nh
Trader Joe's Brick,615,732-477-4781,"  110 Brick Plaza Brick, NJ 08723 ",https://locations.traderjoes.com/nj/brick/615/,-74.1408787,40.0572433,brick,nj
Trader Joe's Bridgewater,614,732-805-0268,"  315 Promenade Blvd Bridgewater, NJ 08807 ",https://locations.traderjoes.com/nj/bridgewater/614/,-74.5554316,40.5643651,bridgewater,nj
Trader Joe's Cherry Hill,613,856-488-0801,"  775 Haddonfield Rd Cherry Hill, NJ 08002 ",https://locations.traderjoes.com/nj/cherry-hill/613/,-75.0321847,39.9289635,cherry-hill,nj
Trader Joe's Clifton,610,973-777-5020,"  259 Allwood Road Clifton, NJ 07012 ",https://locations.traderjoes.com/nj/clifton/610/,-74.1513146,40.8365302,clifton,nj
Trader Joe's Denville,617,973-537-3672,"  3056 State Route 10 West Denville, NJ 07834 ",https://locations.traderjoes.com/nj/denville/617/,-74.5063192,40.8661795,denville,nj
Trader Joe's Edgewater,606,201-945-5932,"  715 River Rd Edgewater, NJ 07020 ",https://locations.traderjoes.com/nj/edgewater/606/,-73.9775851,40.8196686,edgewater,nj
Trader Joe's Florham Park,604,973-377-0679,"  176 Columbia Turnpike Florham Park, NJ 07932 ",https://locations.traderjoes.com/nj/florham-park/604/,-74.3913684,40.7891323,florham-park,nj
Trader Joe's Freehold,590,732-462-1539,"  4331 Route 9 Unit 3 Freehold, NJ 07728 ",https://locations.traderjoes.com/nj/freehold/590/,-74.2936707,40.2808983,freehold,nj
Trader Joe's Hoboken,611,201-714-4790,"  1350 Willow Ave. Hoboken, NJ 07030 ",https://locations.traderjoes.com/nj/hoboken/611/,-74.0299492,40.7536747,hoboken,nj
Trader Joe's Marlton,631,856-988-3323,"  300 P Route 73 S Marlton, NJ 08053 ",https://locations.traderjoes.com/nj/marlton/631/,-74.9241654,39.8903837,marlton,nj
Trader Joe's Middletown,591,732-808-3237,"  1447 NJ-35 Middletown Township, NJ 07748 ",https://locations.traderjoes.com/nj/middletown-township/591/,-74.122482,40.4030542,middletown-township,nj
Trader Joe's Millburn,609,973-218-0912,"  187 Millburn Ave Millburn, NJ 07041 ",https://locations.traderjoes.com/nj/millburn/609/,-74.2961459,40.7230026,millburn,nj
Trader Joe's North Brunswick,612,732-993-1403,"  869 US-1 North Brunswick, NJ 08902 ",https://locations.traderjoes.com/nj/north-brunswick/612/,-74.4592496,40.4628556,north-brunswick,nj
Trader Joe's Paramus,605,201-265-9624,"  404 Rt 17 N Paramus, NJ 07652 ",https://locations.traderjoes.com/nj/paramus/605/,-74.0705862,40.9483179,paramus,nj
Trader Joe's Princeton,607,609-897-0581,"  3528 Brunswick Pike Princeton, NJ 08540 ",https://locations.traderjoes.com/nj/princeton/607/,-74.6611769,40.3106024,princeton,nj
Trader Joe's Shrewsbury,608,732-389-2535,"  1031 Broad St Shrewsbury, NJ 07702 ",https://locations.traderjoes.com/nj/shrewsbury/608/,-74.0615901,40.3167946,shrewsbury,nj
Trader Joe's Wayne,603,973-872-4604,"  910 Hamburg Turnpike Wayne, NJ 07470 ",https://locations.traderjoes.com/nj/wayne/603/,-74.2304054,40.9592844,wayne,nj
Trader Joe's Westfield,601,908-301-0910,"  155 Elm St Westfield, NJ 07090 ",https://locations.traderjoes.com/nj/westfield/601/,-74.3499954,40.6522247,westfield,nj
Trader Joe's Westwood,602,201-263-0134,"  20 Irvington St Westwood, NJ 07675 ",https://locations.traderjoes.com/nj/westwood/602/,-74.0359794,40.9931741,westwood,nj
Trader Joe's Albuquerque,166,505-796-0311,"  8928 Holly Ave NE Albuquerque, NM 87122 ",https://locations.traderjoes.com/nm/albuquerque/166/,-106.5426633,35.175132,albuquerque,nm
Trader Joe's Albuquerque,167,505-883-3662,"  2200 Uptown Loop NE Albuquerque, NM 87110 ",https://locations.traderjoes.com/nm/albuquerque/167/,-106.5654572,35.1022335,albuquerque,nm
Trader Joe's Santa Fe,165,505-995-8145,"  530 W Cordova Rd Santa Fe, NM 87505 ",https://locations.traderjoes.com/nm/santa-fe/165/,-105.953372,35.6729716,santa-fe,nm
Trader Joe's Carson City,281,775-267-2486,"  3790 US Hwy 395 S Carson City, NV 89705 ",https://locations.traderjoes.com/nv/carson-city/281/,-119.776632,39.111761,carson-city,nv
Trader Joe's Anthem,280,702-407-8673,"  10345 S Eastern Ave Henderson, NV 89052 ",https://locations.traderjoes.com/nv/henderson/280/,-115.1093337,36.0008721,henderson,nv
Trader Joe's Henderson,97,702-433-6773,"  2716 N Green Valley Pkwy Henderson, NV 89014 ",https://locations.traderjoes.com/nv/henderson/97/,-115.0811185,36.0695804,henderson,nv
Trader Joe's Las Vegas - Centennial Hills,98,702-396-3372,"  5639 Centennial Ctr Blvd Las Vegas, NV 89149 ",https://locations.traderjoes.com/nv/las-vegas/98/,-115.2567438,36.2631138,las-vegas,nv
Trader Joe's Las Vegas - Downtown Summerlin,284,702-242-0597,"  2315 Summa Dr Ste 100 Las Vegas, NV 89135 ",https://locations.traderjoes.com/nv/las-vegas/284/,-115.3354281,36.1461897,las-vegas,nv
Trader Joe's Las Vegas - Summerlin,86,702-242-8240,"  7575 W Washington Las Vegas, NV 89128 ",https://locations.traderjoes.com/nv/las-vegas/86/,-115.2579003,36.1806022,las-vegas,nv
Trader Joe's Reno,82,775-826-1621,"  5035 S McCarran Blvd Reno, NV 89502 ",https://locations.traderjoes.com/nv/reno/82/,-119.7839949,39.4787891,reno,nv
Trader Joe's Reno,278,,"  13945 S Virginia St Reno, NV 89511 ",https://locations.traderjoes.com/nv/reno/278/,-119.7522403,39.4024455,reno,nv
Trader Joe's Sparks,279,,"  185 Los Altos Pkwy Sparks, NV 89436 ",https://locations.traderjoes.com/nv/sparks/279/,-119.7412467,39.5809124,sparks,nv
Trader Joe's Brooklyn,558,718-246-8460,"  130 Court St Brooklyn, NY 11201 ",https://locations.traderjoes.com/ny/brooklyn/558/,-73.9928699,40.6895837,brooklyn,ny
Trader Joe's Brooklyn - City Point,547,718-243-0107,"  445 Gold St Brooklyn, NY 11201 ",https://locations.traderjoes.com/ny/brooklyn/547/,-73.9829165,40.6909912,brooklyn,ny
Trader Joe's Brooklyn - Williamsburg,548,718-218-7315,"  200 Kent Ave Brooklyn, NY 11249 ",https://locations.traderjoes.com/ny/brooklyn/548/,-73.9646799,40.7177156,brooklyn,ny
Trader Joe's Amherst,536,716-833-4687,"  1565 Niagara Falls Blvd Buffalo, NY 14228 ",https://locations.traderjoes.com/ny/buffalo/536/,-78.8212576,42.9980501,buffalo,ny
Trader Joe's Colonie/Albany,535,518-482-4538,"  79 Wolf Rd Colonie, NY 12205 ",https://locations.traderjoes.com/ny/colonie/535/,-73.8120389,42.7141625,colonie,ny
Trader Joe's Commack,551,631-499-0898,"  5900 Jericho Turnpike Commack, NY 11725 ",https://locations.traderjoes.com/ny/commack/551/,-73.3074892,40.8403293,commack,ny
Trader Joe's Westbury,550,516-794-0174,"  910 Old Country Rd Garden City, NY 11530 ",https://locations.traderjoes.com/ny/garden-city/550/,-73.6039002,40.7443902,garden-city,ny
Trader Joe's Halfmoon,574,518-383-5015,"  3 Halfmoon Crossing Blvd Halfmoon, NY 12065 ",https://locations.traderjoes.com/ny/halfmoon/574/,-73.7653061,42.8591509,halfmoon,ny
Trader Joe's Harlem,576,,"  123 W 125th St Harlem, NY 10027 ",https://locations.traderjoes.com/ny/harlem/576/,-73.9624327,40.8138912,harlem,ny
Trader Joe's Hartsdale,533,914-997-1960,"  215 N Central Ave Hartsdale, NY 10530 ",https://locations.traderjoes.com/ny/hartsdale/533/,-73.7934729,41.0255446,hartsdale,ny
Trader Joe's Hewlett,554,516-569-7191,"  1280 West Broadway Hewlett, NY 11557 ",https://locations.traderjoes.com/ny/hewlett/554/,-73.7017203,40.6392018,hewlett,ny
Trader Joe's Ithaca,568,607-272-1420,"  744 S Meadow Street Ithaca, NY 14850 ",https://locations.traderjoes.com/ny/ithaca/568/,-76.5104712,42.4287805,ithaca,ny
Trader Joe's Lake Grove,556,631-366-2094,"  2085 Smith Haven Plaza Lake Grove, NY 11755 ",https://locations.traderjoes.com/ny/lake-grove/556/,-73.1280967,40.8686356,lake-grove,ny
Trader Joe's Larchmont,532,914-833-9112,"  1260 Boston Post Rd Larchmont, NY 10538 ",https://locations.traderjoes.com/ny/larchmont/532/,-73.7464526,40.9383639,larchmont,ny
Trader Joe's Merrick,553,516-771-1012,"  1714 Merrick Rd Merrick, NY 11566 ",https://locations.traderjoes.com/ny/merrick/553/,-73.5587687,40.6533623,merrick,ny
Trader Joe's 72nd & Broadway,542,212-799-0028,"  2073 Broadway New York, NY 10023 ",https://locations.traderjoes.com/ny/new-york/542/,-73.9822648,40.778552,new-york,ny
Trader Joe's Chelsea,543,212-255-2106,"  675 6th Ave New York, NY 10010 ",https://locations.traderjoes.com/ny/new-york/543/,-73.9941211,40.7420901,new-york,ny
Trader Joe's East Village,546,212-777-9412,"  436 East 14th St New York, NY 10009 ",https://locations.traderjoes.com/ny/new-york/546/,-73.9809993,40.730446,new-york,ny
Trader Joe's Essex Crossing,538,212-477-8340,"  400 Grand St. (Cellar) New York, NY 10002 ",https://locations.traderjoes.com/ny/new-york/538/,-73.9867686,40.7161413,new-york,ny
Trader Joe's New York - Murray Hill,544,212-889-3279,"  200 E 32nd St New York, NY 10016 ",https://locations.traderjoes.com/ny/new-york/544/,-73.9790839,40.7439882,new-york,ny
Trader Joe's SoHo,539,212-691-2721,"  233 Spring Street New York, NY 10013 ",https://locations.traderjoes.com/ny/new-york/539/,-74.0047294,40.7256743,new-york,ny
Trader Joe's Union Square,540,212-529-4612,"  142 E 14th St New York, NY 10003 ",https://locations.traderjoes.com/ny/new-york/540/,-73.9878966,40.733371,new-york,ny
Trader Joe's Upper East Side - Bridgemarket,571,212-935-3870,"  405 E. 59th Street New York, NY 10022 ",https://locations.traderjoes.com/ny/new-york/571/,-73.9615376,40.7596592,new-york,ny
Trader Joe's Upper West Side,545,212-678-1680,"  670 Columbus Ave New York, NY 10025 ",https://locations.traderjoes.com/ny/new-york/545/,-73.9695098,40.7907104,new-york,ny
Trader Joe's Oceanside,552,516-536-9163,"  3418 Long Beach Rd Oceanside, NY 11572 ",https://locations.traderjoes.com/ny/oceanside/552/,-73.6411019,40.6268133,oceanside,ny
Trader Joe's Plainview,555,516-933-6900,"  425 S Oyster Bay Rd Plainview, NY 11803 ",https://locations.traderjoes.com/ny/plainview/555/,-73.5015006,40.7817125,plainview,ny
Trader Joe's Forest Hills,578,718-544-8589,"  69-65 Yellowstone Blvd Queens, NY 11375 ",https://locations.traderjoes.com/ny/queens/578/,-73.8503722,40.7300422,queens,ny
Trader Joe's Long Island City,565,718-472-2672,"  22-43 Jackson Ave Queens, NY 11101 ",https://locations.traderjoes.com/ny/queens/565/,-73.9461982,40.7458383,queens,ny
Trader Joe's Rego Park,557,718-275-1791,"  9030 Metropolitan Ave Queens, NY 11374 ",https://locations.traderjoes.com/ny/queens/557/,-73.8582626,40.710916,queens,ny
Trader Joe's Rochester,534,585-248-5011,"  3349 Monroe Ave Rochester, NY 14618 ",https://locations.traderjoes.com/ny/rochester/534/,-77.5416999,43.1022102,rochester,ny
Trader Joe's Scarsdale,531,914-472-2988,"  727 White Plains Rd Scarsdale, NY 10583 ",https://locations.traderjoes.com/ny/scarsdale/531/,-73.80487,40.9723375,scarsdale,ny
Trader Joe's Staten Island,559,718-370-1085,"  2385 Richmond Ave Staten Island, NY 10314 ",https://locations.traderjoes.com/ny/staten-island/559/,-74.1657412,40.5896623,staten-island,ny
Trader Joe's Syracuse,537,315-446-1629,"  3422 Erie Blvd E Syracuse, NY 13214 ",https://locations.traderjoes.com/ny/syracuse/537/,-76.0706463,43.0462423,syracuse,ny
Trader Joe's Yorktown,567,914-737-1460,"  3240 Crompond Road Yorktown, NY 10598 ",https://locations.traderjoes.com/ny/yorktown/567/,-73.8248107,41.2917236,yorktown,ny
Trader Joe's Kenwood,669,513-984-3452,"  7788 Montgomery Rd Cincinnati, OH 45236 ",https://locations.traderjoes.com/oh/cincinnati/669/,-84.3817041,39.1973262,cincinnati,oh
Trader Joe's Columbus,679,614-473-0794,"  3888 Townsfair Way Columbus, OH 43219 ",https://locations.traderjoes.com/oh/columbus/679/,-82.9180099,40.0493003,columbus,oh
Trader Joe's Dublin,672,614-793-8505,"  6355 Sawmill Rd Dublin, OH 43017 ",https://locations.traderjoes.com/oh/dublin/672/,-83.0930892,40.0965045,dublin,oh
Trader Joe's Kettering,673,937-294-5411,"  328 East Stroop Rd Kettering, OH 45429 ",https://locations.traderjoes.com/oh/kettering/673/,-84.1662778,39.6884356,kettering,oh
Trader Joe's Mentor,709,440-350-7216,"  9474 Mentor Ave Mentor, OH 44060 ",https://locations.traderjoes.com/oh/mentor/709/,-81.2996113,41.6804645,mentor,oh
Trader Joe's Westlake,677,440-250-1592,"  175 Market St Westlake, OH 44145 ",https://locations.traderjoes.com/oh/westlake/677/,-81.9512978,41.4567923,westlake,oh
Trader Joe's Woodmere,676,216-591-9457,"  28425 Chagrin Blvd Woodmere, OH 44122 ",https://locations.traderjoes.com/oh/woodmere/676/,-81.479131,41.4633069,woodmere,oh
Trader Joe's Oklahoma City - Nichols Hills,461,405-843-5655,"  6409 Avondale Dr Nichols Hills, OK 73116 ",https://locations.traderjoes.com/ok/nichols-hills/461/,-97.5310595,35.5376946,nichols-hills,ok
Trader Joe's Tulsa,460,918-712-9768,"  3702 S Peoria Ave Tulsa, OK 74105 ",https://locations.traderjoes.com/ok/tulsa/460/,-95.975934,36.1096067,tulsa,ok
Trader Joe's Beaverton,141,503-626-3794,"  11753 SW Beaverton Hillsdale Hwy Beaverton, OR 97005 ",https://locations.traderjoes.com/or/beaverton/141/,-122.7976043,45.4879718,beaverton,or
Trader Joe's Bend,150,541-312-4198,"  63455 N Hwy 97 Bend, OR 97701 ",https://locations.traderjoes.com/or/bend/150/,-121.3022456,44.1011493,bend,or
Trader Joe's Clackamas,152,503-771-6300,"  9345 SE 82nd Ave Clackamas, OR 97086 ",https://locations.traderjoes.com/or/clackamas/152/,-122.5807379,45.4558588,clackamas,or
Trader Joe's Corvallis,154,541-753-0048,"  1550 NW 9th St Corvallis, OR 97330 ",https://locations.traderjoes.com/or/corvallis/154/,-123.2599744,44.5822604,corvallis,or
Trader Joe's Eugene,145,541-485-1744,"  85 Oakway Center Eugene, OR 97401 ",https://locations.traderjoes.com/or/eugene/145/,-123.0752647,44.0662723,eugene,or
Trader Joe's Hillsboro,149,503-645-8321,"  2285 NW 185th Ave Hillsboro, OR 97124 ",https://locations.traderjoes.com/or/hillsboro/149/,-122.8696106,45.5366231,hillsboro,or
Trader Joe's Lake Oswego,142,503-639-3238,"  15391 SW Bangy Rd Lake Oswego, OR 97035 ",https://locations.traderjoes.com/or/lake-oswego/142/,-122.7432923,45.4138108,lake-oswego,or
Trader Joe's Medford,155,541-608-4993,"  55 Rossanley Dr Medford, OR 97501 ",https://locations.traderjoes.com/or/medford/155/,-122.8822438,42.3434878,medford,or
Trader Joe's Milwaukie,275,,"  15574 SE McLoughlin Blvd Milwaukie, OR 97267 ",https://locations.traderjoes.com/or/milwaukie/275/,-122.6266726,45.4112873,milwaukie,or
Trader Joe's Portland - Hollywood,144,503-284-4232,"  4121 NE Halsey St Portland, OR 97232 ",https://locations.traderjoes.com/or/portland/144/,-122.6208153,45.5347161,portland,or
Trader Joe's Portland NW,146,971-544-0788,"  2122 NW Glisan St Portland, OR 97210 ",https://locations.traderjoes.com/or/portland/146/,-122.6951618,45.5261013,portland,or
Trader Joe's Portland SE,143,503-777-1601,"  4715 SE Cesar Chavez Blvd Portland, OR 97202 ",https://locations.traderjoes.com/or/portland/143/,-122.6235486,45.4888244,portland,or
Trader Joe's Southwest Portland,168,503-244-4625,"  7215 SW Garden Home Road Portland, OR 97223 ",https://locations.traderjoes.com/or/portland/168/,-122.7508839,45.4661668,portland,or
Trader Joe's Salem,153,503-378-9042,"  4450 Commercial St SE Salem, OR 97302 ",https://locations.traderjoes.com/or/salem/153/,-123.0325549,44.8896067,salem,or
Trader Joe's Tigard,169,503-443-6713,"  16200 SW Pacific Hwy Tigard, OR 97224 ",https://locations.traderjoes.com/or/tigard/169/,-122.7965719,45.4036566,tigard,or
Trader Joe's Ardmore,635,610-658-0645,"  112 Coulter Ave Ardmore, PA 19003 ",https://locations.traderjoes.com/pa/ardmore/635/,-75.2865954,40.0072791,ardmore,pa
Trader Joe's Camp Hill,569,7177306025,"  3545 Gettysburg Road Camp Hill, PA 17011 ",https://locations.traderjoes.com/pa/camp-hill/569/,-76.9371649,40.2245178,camp-hill,pa
Trader Joe's Jenkintown,633,215-885-5240,"  933 Old York Rd Jenkintown, PA 19046 ",https://locations.traderjoes.com/pa/jenkintown/633/,-75.1221983,40.1084083,jenkintown,pa
Trader Joe's Media,637,610-891-2752,"  12 E State St Media, PA 19063 ",https://locations.traderjoes.com/pa/media/637/,-75.3888998,39.9175588,media,pa
Trader Joe's North Wales,639,215-646-5870,"  1460 Bethlehem Pike North Wales, PA 19454 ",https://locations.traderjoes.com/pa/north-wales/639/,-75.2235665,40.207844,north-wales,pa
Trader Joe's Arch St.,618,215-563-2170,"  1324 Arch St. Philadelphia, PA 19107 ",https://locations.traderjoes.com/pa/philadelphia/618/,-75.1624335,39.9541911,philadelphia,pa
Trader Joe's Philadelphia - Center City,634,215-569-9282,"  2121 Market St Philadelphia, PA 19103 ",https://locations.traderjoes.com/pa/philadelphia/634/,-75.1759702,39.9541809,philadelphia,pa
Trader Joe's Pittsburgh,638,412-363-5748,"  6343 Penn Ave Pittsburgh, PA 15206 ",https://locations.traderjoes.com/pa/pittsburgh/638/,-79.9191827,40.4592363,pittsburgh,pa
Trader Joe's Pittsburgh North Hills,624,412-366-1131,"  9020 Covenant Ave Pittsburgh, PA 15237 ",https://locations.traderjoes.com/pa/pittsburgh/624/,-80.0223146,40.5704092,pittsburgh,pa
Trader Joe's Pittsburgh - South Hills,630,412-835-2212,"  1630 Washington Rd Pittsburgh, PA 15241 ",https://locations.traderjoes.com/pa/pittsburgh/630/,-80.0517205,40.3513544,pittsburgh,pa
Trader Joe's State College,629,814-234-2224,"  243 Patriot Lane State College, PA 16803 ",https://locations.traderjoes.com/pa/state-college/629/,-77.9022379,40.8103369,state-college,pa
Trader Joe's Wayne,632,610-225-0925,"  171 E Swedesford Rd Wayne, PA 19087 ",https://locations.traderjoes.com/pa/wayne/632/,-75.4336403,40.0734346,wayne,pa
Trader Joe's Providence,572,401-459-4090,"  425 S Main St Providence, RI 02903 ",https://locations.traderjoes.com/ri/providence/572/,-71.4036004,41.8204415,providence,ri
Trader Joe's Warwick,518,401-821-5368,"  1000 Bald Hill Rd Warwick, RI 02886 ",https://locations.traderjoes.com/ri/warwick/518/,-71.487168,41.712416,warwick,ri
Trader Joe's Columbia,753,803-790-2404,"  4516 Forest Drive Columbia, SC 29206 ",https://locations.traderjoes.com/sc/columbia/753/,-80.9726801,34.0200278,columbia,sc
Trader Joe's Greenville,751,864-286-0231,"  59 Woodruff Industrial Ln Greenville, SC 29607 ",https://locations.traderjoes.com/sc/greenville/751/,-82.3056746,34.8290454,greenville,sc
Trader Joe's Mt. Pleasant,752,843-884-4037,"  401 Johnnie Dodds Blvd Mt. Pleasant, SC 29464 ",https://locations.traderjoes.com/sc/mt.-pleasant/752/,-79.8871696,32.8047946,mt.-pleasant,sc
Trader Joe's Mt. Pleasant,812,,"  1909 Hwy 17 N Mt. Pleasant, SC 29464 ",https://locations.traderjoes.com/sc/mt.-pleasant/812/,-79.8258443,32.8304345,mt.-pleasant,sc
Trader Joe's Chattanooga,787,423-855-1310,"  2111 Gunbarrel Road Chattanooga, TN 37421 ",https://locations.traderjoes.com/tn/chattanooga/787/,-85.1547014,35.0328542,chattanooga,tn
Trader Joe's Franklin - Cool Springs,792,615-771-3697,"  545 Cool Springs Blvd Franklin, TN 37067 ",https://locations.traderjoes.com/tn/franklin/792/,-86.8214814,35.9497409,franklin,tn
Trader Joe's Germantown,738,901-759-2803,"  2130 Exeter Rd. Germantown, TN 38138 ",https://locations.traderjoes.com/tn/germantown/738/,-89.8011737,35.0907799,germantown,tn
Trader Joe's Knoxville,663,865-670-4088,"  8001 Kingston Pike Knoxville, TN 37919 ",https://locations.traderjoes.com/tn/knoxville/663/,-84.0459828,35.9271838,knoxville,tn
Trader Joe's Belle Meade,739,615-356-1066,"  90 White Bridge Rd Nashville, TN 37205 ",https://locations.traderjoes.com/tn/nashville/739/,-86.852227,36.1307261,nashville,tn
Trader Joe's Nashville,664,615-297-6560,"  3909 Hillsboro Pike Nashville, TN 37215 ",https://locations.traderjoes.com/tn/nashville/664/,-86.815626,36.1050835,nashville,tn
Trader Joe's Austin - Northwest,454,512-241-1248,"  9722 Great Hills Trail Austin, TX 78759 ",https://locations.traderjoes.com/tx/austin/454/,-97.7517712,30.3955849,austin,tx
Trader Joe's Austin - Rollingwood,453,512-306-1032,"  2805 Bee Cave Rd Austin, TX 78746 ",https://locations.traderjoes.com/tx/austin/453/,-97.7898114,30.2701339,austin,tx
Trader Joe's Austin - Seaholm,452,512-474-2263,"  211 Walter Seaholm Dr, Ste 100 Austin, TX 78701 ",https://locations.traderjoes.com/tx/austin/452/,-97.7527899,30.2674966,austin,tx
Trader Joe's Coppell,456,,"  120 S Denton Tap Rd. Coppell, TX 75019 ",https://locations.traderjoes.com/tx/coppell/456/,-96.9922263,32.9682219,coppell,tx
Trader Joe's Dallas Far North,407,972-239-3901,"  14856 Preston Rd Dallas, TX 75254 ",https://locations.traderjoes.com/tx/dallas/407/,-96.8028234,32.9508704,dallas,tx
Trader Joe's Dallas Knox,400,214-599-2155,"  4525 Cole Ave Dallas, TX 75205 ",https://locations.traderjoes.com/tx/dallas/400/,-96.789751,32.822539,dallas,tx
Trader Joe's Dallas  -  Lower Greenville,403,469-334-0614,"  2001 Greenville Ave Dallas, TX 75206 ",https://locations.traderjoes.com/tx/dallas/403/,-96.770559,32.8148346,dallas,tx
Trader Joe's Dallas North,401,214-346-6579,"  7939 Walnut Hill Lane Dallas, TX 75230 ",https://locations.traderjoes.com/tx/dallas/401/,-96.7722808,32.8805703,dallas,tx
Trader Joe's Dallas West,405,214-366-0205,"  5550 W Lovers Lane Dallas, TX 75209 ",https://locations.traderjoes.com/tx/dallas/405/,-96.8194411,32.8495515,dallas,tx
Trader Joe's Fort Worth,404,817-922-9107,"  2701 S Hulen St Fort Worth, TX 76109 ",https://locations.traderjoes.com/tx/fort-worth/404/,-97.3851284,32.7119773,fort-worth,tx
Trader Joe's Houston - Alabama Theater,426,713-526-4034,"  2922 S Shepherd Drive Houston, TX 77098 ",https://locations.traderjoes.com/tx/houston/426/,-95.4113227,29.7392113,houston,tx
Trader Joe's Houston - S Voss Rd,427,713-266-2377,"  1440 South Voss Road Houston, TX 77057 ",https://locations.traderjoes.com/tx/houston/427/,-95.5016658,29.7527195,houston,tx
Trader Joe's Houston - West,431,281-496-2488,"  11683 Westheimer Rd Houston, TX 77077 ",https://locations.traderjoes.com/tx/houston/431/,-95.5824872,29.7354063,houston,tx
Trader Joe's Katy,429,281-392-4200,"  2717 Commercial Center Blvd Katy, TX 77494 ",https://locations.traderjoes.com/tx/katy/429/,-95.7748374,29.7403352,katy,tx
Trader Joe's McKinney,408,214-491-1893,"  2851 Craig Dr Ste 100 McKinney, TX 75070 ",https://locations.traderjoes.com/tx/mckinney/408/,-96.6428744,33.1736968,mckinney,tx
Trader Joe's Plano,402,972-312-9538,"  2400 Preston Rd Plano, TX 75093 ",https://locations.traderjoes.com/tx/plano/402/,-96.7928213,33.029232,plano,tx
Trader Joe's San Antonio,451,210-826-1110,"  350 East Basse Road San Antonio, TX 78209 ",https://locations.traderjoes.com/tx/san-antonio/451/,-98.4780302,29.496703,san-antonio,tx
Trader Joe's San Antonio - Sonterra Village,455,210-545-3123,"  403 N Loop 1604 W San Antonio, TX 78232 ",https://locations.traderjoes.com/tx/san-antonio/455/,-98.4991019,29.6094541,san-antonio,tx
Trader Joe's Southlake,406,817-251-0360,"  1492 E Southlake Blvd Southlake, TX 76092 ",https://locations.traderjoes.com/tx/southlake/406/,-97.1294179,32.9413307,southlake,tx
Trader Joe's Sugar Land,430,,"  13550 University Blvd Sugar Land, TX 77479 ",https://locations.traderjoes.com/tx/sugar-land/430/,-95.6484243,29.5844277,sugar-land,tx
Trader Joe's The Woodlands,428,281-465-0254,"  10868 Kuykendahl Road The Woodlands, TX 77381 ",https://locations.traderjoes.com/tx/the-woodlands/428/,-95.5353996,30.1755966,the-woodlands,tx
Trader Joe's Cottonwood Heights,351,801-562-3024,"  6989 S 1300 E Cottonwood Heights, UT 84047 ",https://locations.traderjoes.com/ut/cottonwood-heights/351/,-111.8537251,40.6241078,cottonwood-heights,ut
Trader Joe's Draper,353,801-571-0987,"  11477 S. State St. Draper, UT 84020 ",https://locations.traderjoes.com/ut/draper/353/,-111.8900473,40.5428825,draper,ut
Trader Joe's Orem,352,801-224-1453,"  440 East Park Avenue Orem, UT 84097 ",https://locations.traderjoes.com/ut/orem/352/,-111.6852582,40.2762516,orem,ut
Trader Joe's Salt Lake City,350,801-359-2462,"  634 East 400 South Salt Lake City, UT 84102 ",https://locations.traderjoes.com/ut/salt-lake-city/350/,-111.8726019,40.7596686,salt-lake-city,ut
Trader Joe's Salt Lake City,354,,"  2160 S 700 E Salt Lake City, UT 84106 ",https://locations.traderjoes.com/ut/salt-lake-city/354/,-111.8722342,40.7239547,salt-lake-city,ut
Trader Joe's Alexandria,647,703-548-0611,"  612 N Saint Asaph St Alexandria, VA 22314 ",https://locations.traderjoes.com/va/alexandria/647/,-77.0447925,38.8107825,alexandria,va
Trader Joe's Arlington - Clarendon,640,703-351-8015,"  1109 N Highland St Arlington, VA 22201 ",https://locations.traderjoes.com/va/arlington/640/,-77.094641,38.886684,arlington,va
Trader Joe's Ashburn,619,703-858-5993,"  44755 Brimfield Dr Ashburn, VA 20147 ",https://locations.traderjoes.com/va/ashburn/619/,-77.452729,39.0503773,ashburn,va
Trader Joe's Bailey's Crossroads,644,703-379-5883,"  5847 Leesburg Pike Bailey's Crossroads, VA 22041 ",https://locations.traderjoes.com/va/bailey-s-crossroads/644/,-77.1327867,38.8510336,bailey-s-crossroads,va
Trader Joe's Centreville,654,703-815-0697,"  14100 Lee Hwy Centreville, VA 20120 ",https://locations.traderjoes.com/va/centreville/654/,-77.4327704,38.8404178,centreville,va
Trader Joe's Charlottesville,661,434-974-1466,"  2025 Bond St. Charlottesville, VA 22901 ",https://locations.traderjoes.com/va/charlottesville/661/,-78.491488,38.0629829,charlottesville,va
Trader Joe's Fairfax,643,703-764-8550,"  9464 Main St Fairfax, VA 22031 ",https://locations.traderjoes.com/va/fairfax/643/,-77.2703726,38.8427152,fairfax,va
Trader Joe's Falls Church - Tyson's Station,641,703-288-0566,"  7514 Leesburg Turnpike Falls Church, VA 22043 ",https://locations.traderjoes.com/va/falls-church/641/,-77.2036932,38.9043526,falls-church,va
Trader Joe's Richmond/Short Pump,659,804-360-4098,"  11331 W Broad St Glen Allen, VA 23060 ",https://locations.traderjoes.com/va/glen-allen/659/,-77.6068018,37.6488915,glen-allen,va
Trader Joe's Leesburg,817,,"  506 Fort Evans Rd NE Leesburg, VA 20176 ",https://locations.traderjoes.com/va/leesburg/817/,-77.5300094,39.1078803,leesburg,va
Trader Joe's Newport News,656,757-890-0235,"  12551 Jefferson Ave Newport News, VA 23602 ",https://locations.traderjoes.com/va/newport-news/656/,-76.5164768,37.1309371,newport-news,va
Trader Joe's Reston,646,703-689-0865,"  11958 Killingsworth Ave Reston, VA 20194 ",https://locations.traderjoes.com/va/reston/646/,-77.3590466,38.9672395,reston,va
Trader Joe's Richmond,786,804-323-4292,"  3000 Stony Point Rd Richmond, VA 23235 ",https://locations.traderjoes.com/va/richmond/786/,-77.5642704,37.5389022,richmond,va
Trader Joe's Springfield,651,703-569-9301,"  6394 Springfield Plaza Springfield, VA 22150 ",https://locations.traderjoes.com/va/springfield/651/,-77.1894526,38.7816441,springfield,va
Trader Joe's Virginia Beach,660,757-422-4840,"  503 Hilltop Plaza Virginia Beach, VA 23454 ",https://locations.traderjoes.com/va/virginia-beach/660/,-76.0247752,36.8486112,virginia-beach,va
Trader Joe's West Springfield,809,,"  8402 Old Keene Mill Rd West Springfield, VA 22152 ",https://locations.traderjoes.com/va/west-springfield/809/,-77.234251,38.7796371,west-springfield,va
Trader Joe's Williamsburg,657,757-259-2135,"  5000 Settlers Market Blvd Williamsburg, VA 23188 ",https://locations.traderjoes.com/va/williamsburg/657/,-76.7477849,37.2771346,williamsburg,va
Trader Joe's South Burlington,527,802-658-4500,"  200 Dorset St South Burlington, VT 05403 ",https://locations.traderjoes.com/vt/south-burlington/527/,-73.1803986,44.4636358,south-burlington,vt
Trader Joe's Bellevue,131,425-641-5069,"  15563 NE 24th St Bellevue, WA 98007 ",https://locations.traderjoes.com/wa/bellevue/131/,-122.1334288,47.6307602,bellevue,wa
Trader Joe's Bellevue,162,425-454-9799,"  416 116th Ave NE Bellevue, WA 98004 ",https://locations.traderjoes.com/wa/bellevue/162/,-122.1848204,47.6137345,bellevue,wa
Trader Joe's Bellingham,151,360-734-5166,"  2410 James St Bellingham, WA 98225 ",https://locations.traderjoes.com/wa/bellingham/151/,-122.4639239,48.762126,bellingham,wa
Trader Joe's Burien,133,206-901-9339,"  15868 1st Ave S Burien, WA 98148 ",https://locations.traderjoes.com/wa/burien/133/,-122.3313909,47.460074,burien,wa
Trader Joe's Everett,139,425-464-5485,"  1302 SE Everett Mall Way Everett, WA 98208 ",https://locations.traderjoes.com/wa/everett/139/,-122.2213893,47.9107208,everett,wa
Trader Joe's Federal Way,134,253-941-6138,"  1758 S 320th St Federal Way, WA 98003 ",https://locations.traderjoes.com/wa/federal-way/134/,-122.3109368,47.3169255,federal-way,wa
Trader Joe's Issaquah,138,425-557-6420,"  975 NW Gilman Blvd Issaquah, WA 98027 ",https://locations.traderjoes.com/wa/issaquah/138/,-122.0522419,47.5439787,issaquah,wa
Trader Joe's Kent,163,253-639-3419,"  12966 SE Kent-Kangley Rd Kent, WA 98030 ",https://locations.traderjoes.com/wa/kent/163/,-122.1669396,47.3595869,kent,wa
Trader Joe's Kirkland,132,425-814-9181,"  12520 Totem Lake Blvd NE Kirkland, WA 98034 ",https://locations.traderjoes.com/wa/kirkland/132/,-122.1799863,47.7114517,kirkland,wa
Trader Joe's Lynnwood,129,425-670-0623,"  19715 Highway 99 Lynnwood, WA 98036 ",https://locations.traderjoes.com/wa/lynnwood/129/,-122.313765,47.8196337,lynnwood,wa
Trader Joe's Olympia,156,360-352-7440,"  1530 Black Lake Blvd SW Olympia, WA 98502 ",https://locations.traderjoes.com/wa/olympia/156/,-122.9372333,47.0335349,olympia,wa
Trader Joe's Redmond,140,425-883-1624,"  15932 Redmond Way Redmond, WA 98052 ",https://locations.traderjoes.com/wa/redmond/140/,-122.1279924,47.675818,redmond,wa
Trader Joe's Sammamish,160,425-836-0837,"  490 228th Ave NE Sammamish, WA 98074 ",https://locations.traderjoes.com/wa/sammamish/160/,-122.0338824,47.613851,sammamish,wa
Trader Joe's Ballard,147,206-783-0498,"  4609 14th Ave NW Seattle, WA 98107 ",https://locations.traderjoes.com/wa/seattle/147/,-122.3742472,47.6626139,seattle,wa
Trader Joe's Seattle - Capitol Hill,130,206-322-7268,"  1700 Madison St Seattle, WA 98122 ",https://locations.traderjoes.com/wa/seattle/130/,-122.3097028,47.6160063,seattle,wa
Trader Joe's Seattle - Queen Anne Hill,135,206-284-2546,"  1916 Queen Anne Ave N Seattle, WA 98109 ",https://locations.traderjoes.com/wa/seattle/135/,-122.3566656,47.6369841,seattle,wa
Trader Joe's Seattle - U District,137,206-547-6299,"  4555 Roosevelt Way NE Seattle, WA 98105 ",https://locations.traderjoes.com/wa/seattle/137/,-122.3177437,47.6626855,seattle,wa
Trader Joe's West Seattle,157,206-913-0013,"  4545 Fauntleroy Way SW Seattle, WA 98116 ",https://locations.traderjoes.com/wa/seattle/157/,-122.3810293,47.5619296,seattle,wa
Trader Joe's Shoreline,270,206-542-5336,"  1201 N 175th St Shoreline, WA 98133 ",https://locations.traderjoes.com/wa/shoreline/270/,-122.3433056,47.7549148,shoreline,wa
Trader Joe's Silverdale,158,360-307-7224,"  9991 Mickelberry Rd Silverdale, WA 98383 ",https://locations.traderjoes.com/wa/silverdale/158/,-122.6831633,47.6554254,silverdale,wa
Trader Joe's Spokane,159,509-534-1077,"  2975 East 29th Ave Spokane, WA 99223 ",https://locations.traderjoes.com/wa/spokane/159/,-117.3666428,47.6289661,spokane,wa
Trader Joe's Spokane N,164,509-487-4188,"  5520 N Division St Spokane, WA 99208 ",https://locations.traderjoes.com/wa/spokane/164/,-117.409297,47.7088991,spokane,wa
Trader Joe's University Place,148,253-460-2672,"  3800 Bridgeport Way W University Place, WA 98466 ",https://locations.traderjoes.com/wa/university-place/148/,-122.5381783,47.2230636,university-place,wa
Trader Joe's Vancouver,136,360-883-9000,"  305 SE Chkalov Dr Vancouver, WA 98683 ",https://locations.traderjoes.com/wa/vancouver/136/,-122.5532019,45.6195259,vancouver,wa
Trader Joe's Vancouver,271,360-512-2792,"  14007 NE 10th Ave Vancouver, WA 98685 ",https://locations.traderjoes.com/wa/vancouver/271/,-122.6607425,45.7229026,vancouver,wa
Trader Joe's Brookfield,726,262-784-4806,"  12665 W. Bluemound Rd Brookfield, WI 53005 ",https://locations.traderjoes.com/wi/brookfield/726/,-88.0701501,43.0356775,brookfield,wi
Trader Joe's Madison,712,608-257-1916,"  1810 Monroe St Madison, WI 53711 ",https://locations.traderjoes.com/wi/madison/712/,-89.4175436,43.0649866,madison,wi
Trader Joe's Glendale,711,414-962-3382,"  5600 N Port Washington Rd Milwaukee, WI 53217 ",https://locations.traderjoes.com/wi/milwaukee/711/,-87.9162927,43.1189323,milwaukee,wi
